{
"type": "FeatureCollection",
"name": "imd_subdivisions",
"crs": { "type": "name", "properties": { "name": "urn:ogc:def:crs:OGC:1.3:CRS84" } },
"xy_coordinate_resolution": 0.0001,
"features": [
{ "type": "Feature", "properties": { "rid": 0, "name": "CHHATTISGARH", "zone": "Central" }, "geometry": { "type": "Polygon", "coordinates": [ [ [ 82.7781, 23.8854 ], [ 82.775, 23.8425 ], [ 82.9899, 23.7479 ], [ 83.1827, 23.7995 ], [ 83.2623, 23.907 ], [ 83.4747, 23.898 ], [ 83.6089, 23.8205 ], [ 83.6838, 23.6072 ], [ 83.7791, 23.4868 ], [ 83.8857, 23.4639 ], [ 83.929, 23.5371 ], [ 84.0048, 23.5345 ], [ 83.9536, 23.2847 ], [ 84.0546, 23.2543 ], [ 84.0129, 23.0973 ], [ 84.1162, 22.9136 ], [ 84.3432, 22.8807 ], [ 84.3541, 22.8214 ], [ 84.1894, 22.5841 ], [ 83.9575, 22.4451 ], [ 84.0346, 22.327 ], [ 83.5525, 22.0559 ], [ 83.5257, 21.9502 ], [ 83.5894, 21.8208 ], [ 83.5665, 21.7488 ], [ 83.3824, 21.6675 ], [ 83.4344, 21.6009 ], [ 83.3385, 21.4796 ], [ 83.3717, 21.3131 ], [ 83.2723, 21.3134 ], [ 83.1462, 21.0794 ], [ 82.6752, 21.1074 ], [ 82.6344, 21.0941 ], [ 82.6392, 21.0199 ], [ 82.4807, 20.796 ], [ 82.3404, 20.7804 ], [ 82.4037, 20.3827 ], [ 82.3751, 20.0398 ], [ 82.4624, 19.9634 ], [ 82.7011, 19.8959 ], [ 82.6045, 19.7498 ], [ 82.591, 19.8242 ], [ 82.395, 19.8521 ], [ 82.3442, 19.8027 ], [ 82.25, 19.945 ], [ 81.9486, 20.0425 ], [ 81.8723, 19.9867 ], [ 81.8552, 19.87 ], [ 82.0139, 19.7596 ], [ 82.0267, 19.5256 ], [ 82.1677, 19.3623 ], [ 82.216, 18.8761 ], [ 82.0868, 18.6975 ], [ 81.9366, 18.6213 ], [ 81.9746, 18.5419 ], [ 81.4952, 18.1504 ], [ 81.4705, 17.9017 ], [ 81.4033, 17.7769 ], [ 81.1929, 17.8195 ], [ 81.0633, 17.7499 ], [ 81.0207, 17.7707 ], [ 80.9823, 18.1268 ], [ 80.8743, 18.1201 ], [ 80.8766, 18.1786 ], [ 80.7858, 18.1263 ], [ 80.7422, 18.3328 ], [ 80.6078, 18.5341 ], [ 80.4159, 18.5759 ], [ 80.335, 18.5772 ], [ 80.2524, 18.6889 ], [ 80.3766, 18.7832 ], [ 80.2727, 18.9749 ], [ 80.2974, 19.0481 ], [ 80.4189, 19.1201 ], [ 80.5568, 19.3571 ], [ 80.6331, 19.34 ], [ 80.6864, 19.2218 ], [ 80.8816, 19.307 ], [ 80.835, 19.3648 ], [ 80.8971, 19.4396 ], [ 80.8426, 19.4919 ], [ 80.6676, 19.5737 ], [ 80.5605, 19.7469 ], [ 80.4065, 19.7625 ], [ 80.5, 19.8214 ], [ 80.4294, 19.8431 ], [ 80.4424, 19.9006 ], [ 80.5198, 19.865 ], [ 80.5455, 19.914 ], [ 80.5168, 20.0783 ], [ 80.4205, 20.101 ], [ 80.421, 20.2151 ], [ 80.6209, 20.2624 ], [ 80.6151, 20.4971 ], [ 80.5081, 20.5857 ], [ 80.5901, 20.6353 ], [ 80.5681, 20.7736 ], [ 80.471, 20.9168 ], [ 80.4647, 21.0762 ], [ 80.6968, 21.227 ], [ 80.702, 21.2779 ], [ 80.6272, 21.2901 ], [ 80.7269, 21.4644 ], [ 80.7417, 21.78 ], [ 80.8646, 21.7801 ], [ 80.9104, 22.0814 ], [ 81.0643, 22.0527 ], [ 81.1416, 22.4542 ], [ 81.327, 22.5257 ], [ 81.4193, 22.4394 ], [ 81.8063, 22.6674 ], [ 81.8544, 22.9396 ], [ 81.964, 23.111 ], [ 82.15, 23.1098 ], [ 82.1825, 23.2816 ], [ 81.9669, 23.5125 ], [ 81.765, 23.5566 ], [ 81.6557, 23.4854 ], [ 81.61, 23.672 ], [ 81.7038, 23.7433 ], [ 81.6268, 23.9301 ], [ 81.8286, 23.7714 ], [ 81.9225, 23.8425 ], [ 82.296, 23.7825 ], [ 82.6076, 23.7796 ], [ 82.7781, 23.8854 ] ] ] } },
{ "type": "Feature", "properties": { "rid": 1, "name": "EAST MADHYA PRADESH", "zone": "Central" }, "geometry": { "type": "Polygon", "coordinates": [ [ [ 78.4584, 21.544 ], [ 78.4672, 21.7704 ], [ 78.5159, 21.9144 ], [ 78.3751, 21.9122 ], [ 78.3601, 22.0314 ], [ 78.2677, 22.1732 ], [ 78.2628, 22.4239 ], [ 78.3527, 22.4254 ], [ 78.5338, 22.3566 ], [ 78.5439, 22.512 ], [ 78.515, 22.6907 ], [ 78.7084, 22.6697 ], [ 78.6408, 22.8599 ], [ 78.4711, 22.9767 ], [ 78.7913, 23.1128 ], [ 78.7627, 23.2797 ], [ 78.6178, 23.4328 ], [ 78.7184, 23.6015 ], [ 78.5123, 23.5386 ], [ 78.469, 23.7648 ], [ 78.3809, 23.632 ], [ 78.2885, 23.714 ], [ 78.2428, 24.0355 ], [ 78.1393, 24.0098 ], [ 78.07, 24.1995 ], [ 78.0928, 24.3432 ], [ 78.206, 24.3929 ], [ 78.3345, 24.2179 ], [ 78.4954, 24.2926 ], [ 78.7414, 24.0779 ], [ 78.8566, 24.1309 ], [ 78.8356, 24.1852 ], [ 78.9792, 24.3518 ], [ 78.9618, 24.37 ], [ 78.8638, 24.3956 ], [ 78.8963, 24.4304 ], [ 78.86, 24.5209 ], [ 78.7008, 24.5479 ], [ 78.7452, 24.8206 ], [ 78.5904, 24.8996 ], [ 78.5345, 25.1349 ], [ 78.3991, 25.2174 ], [ 78.5702, 25.3798 ], [ 78.7132, 25.3294 ], [ 78.817, 25.3984 ], [ 78.8619, 25.504 ], [ 78.9085, 25.4799 ], [ 78.9171, 25.3227 ], [ 78.861, 25.3308 ], [ 78.738, 25.2089 ], [ 78.7636, 25.1794 ], [ 78.8332, 25.2611 ], [ 78.8829, 25.2426 ], [ 78.8512, 25.1142 ], [ 78.9592, 25.1869 ], [ 79.0275, 25.1635 ], [ 78.9957, 25.1137 ], [ 79.1247, 25.0451 ], [ 79.2701, 25.0454 ], [ 79.2367, 25.1887 ], [ 79.2482, 25.2643 ], [ 79.2834, 25.2573 ], [ 79.4489, 25.1909 ], [ 79.3535, 24.9894 ], [ 79.5604, 25.075 ], [ 79.8236, 25.0335 ], [ 79.8193, 25.1491 ], [ 79.934, 25.1693 ], [ 80.0909, 25.2786 ], [ 80.2563, 25.3309 ], [ 80.2981, 25.1835 ], [ 80.4189, 25.1427 ], [ 80.4092, 25.0737 ], [ 80.3259, 25.0619 ], [ 80.3512, 25.0274 ], [ 80.2583, 24.9521 ], [ 80.3626, 24.9211 ], [ 80.428, 24.9749 ], [ 80.4552, 24.8835 ], [ 80.5352, 24.9342 ], [ 80.5108, 25.0104 ], [ 80.5654, 24.9877 ], [ 80.5969, 25.0525 ], [ 80.7228, 24.9669 ], [ 80.7604, 24.9766 ], [ 80.6969, 25.0185 ], [ 80.8531, 25.0374 ], [ 80.8979, 25.0867 ], [ 80.7916, 24.8889 ], [ 80.8234, 24.8257 ], [ 81.0441, 24.8565 ], [ 81.1231, 24.8161 ], [ 81.1985, 24.8439 ], [ 81.2719, 25.084 ], [ 81.4019, 25.0472 ], [ 81.3971, 24.9829 ], [ 81.4794, 24.9896 ], [ 81.4942, 25.119 ], [ 81.552, 25.1443 ], [ 81.6127, 25.0406 ], [ 81.5867, 25.0014 ], [ 81.6764, 24.9397 ], [ 81.8513, 24.9177 ], [ 81.9326, 24.7859 ], [ 82.0746, 24.7445 ], [ 82.1628, 24.6759 ], [ 82.2177, 24.6687 ], [ 82.2122, 24.596 ], [ 82.2952, 24.5977 ], [ 82.321, 24.5278 ], [ 82.3762, 24.5016 ], [ 82.4019, 24.5949 ], [ 82.6998, 24.5764 ], [ 82.791, 24.5151 ], [ 82.8146, 24.4461 ], [ 82.7373, 24.4568 ], [ 82.7191, 24.314 ], [ 82.7978, 24.1913 ], [ 82.7163, 24.0416 ], [ 82.6506, 24.0529 ], [ 82.6284, 24.007 ], [ 82.7803, 23.9162 ], [ 82.7781, 23.8854 ], [ 82.6076, 23.7796 ], [ 82.296, 23.7825 ], [ 81.9225, 23.8425 ], [ 81.8286, 23.7714 ], [ 81.6268, 23.9301 ], [ 81.7038, 23.7433 ], [ 81.61, 23.672 ], [ 81.6557, 23.4854 ], [ 81.765, 23.5566 ], [ 81.9669, 23.5125 ], [ 82.1825, 23.2816 ], [ 82.15, 23.1098 ], [ 81.964, 23.111 ], [ 81.8544, 22.9396 ], [ 81.8063, 22.6674 ], [ 81.4193, 22.4394 ], [ 81.327, 22.5257 ], [ 81.1416, 22.4542 ], [ 81.0643, 22.0527 ], [ 80.9104, 22.0814 ], [ 80.8646, 21.7801 ], [ 80.7417, 21.78 ], [ 80.7269, 21.4644 ], [ 80.6272, 21.2901 ], [ 80.4389, 21.3206 ], [ 80.4343, 21.4233 ], [ 80.3278, 21.53 ], [ 79.9657, 21.5079 ], [ 79.8317, 21.4528 ], [ 79.5798, 21.5155 ], [ 79.4701, 21.6132 ], [ 79.2802, 21.6718 ], [ 79.2308, 21.597 ], [ 78.9806, 21.531 ], [ 78.9626, 21.4431 ], [ 78.6398, 21.4012 ], [ 78.4765, 21.4591 ], [ 78.4584, 21.544 ] ] ] } },
{ "type": "Feature", "properties": { "rid": 2, "name": "GUJARAT REGION", "zone": "Central" }, "geometry": { "type": "Polygon", "coordinates": [ [ [ 71.9152, 24.6835 ], [ 72.1737, 24.5926 ], [ 72.1112, 24.5646 ], [ 72.7905, 24.3537 ], [ 72.9075, 24.4905 ], [ 72.9613, 24.488 ], [ 72.9602, 24.4033 ], [ 73.0619, 24.3406 ], [ 72.9482, 24.1914 ], [ 72.9702, 24.1301 ], [ 73.1009, 23.9929 ], [ 73.2359, 24.074 ], [ 73.4893, 23.7646 ], [ 73.6165, 23.5664 ], [ 73.6929, 23.5973 ], [ 73.7573, 23.402 ], [ 74.0757, 23.308 ], [ 74.1816, 23.2323 ], [ 74.2185, 23.1162 ], [ 74.3431, 23.118 ], [ 74.3971, 22.9992 ], [ 74.4194, 22.8986 ], [ 74.5555, 22.8184 ], [ 74.5456, 22.7757 ], [ 74.4349, 22.5945 ], [ 74.1824, 22.4717 ], [ 74.1363, 22.513 ], [ 74.173, 22.4115 ], [ 74.2412, 22.4254 ], [ 74.3206, 22.3685 ], [ 74.2451, 22.2981 ], [ 74.1371, 22.3009 ], [ 74.2132, 22.1111 ], [ 74.2077, 21.9356 ], [ 74.075, 21.824 ], [ 73.9772, 21.8435 ], [ 73.8762, 21.7975 ], [ 73.9533, 21.6626 ], [ 73.8541, 21.6138 ], [ 73.9198, 21.4809 ], [ 74.2185, 21.5364 ], [ 74.4025, 21.5201 ], [ 74.4094, 21.4787 ], [ 74.0006, 21.3592 ], [ 73.9597, 21.2687 ], [ 73.7859, 21.1562 ], [ 73.7813, 21.0915 ], [ 73.9414, 20.967 ], [ 73.985, 20.7447 ], [ 73.8609, 20.7033 ], [ 73.8368, 20.5951 ], [ 73.7655, 20.5746 ], [ 73.6837, 20.5732 ], [ 73.5196, 20.729 ], [ 73.4449, 20.6637 ], [ 73.5307, 20.4891 ], [ 73.4378, 20.4084 ], [ 73.4801, 20.2083 ], [ 73.2666, 20.1509 ], [ 73.2308, 20.0784 ], [ 73.0636, 20.0779 ], [ 72.9879, 20.1302 ], [ 72.9925, 20.2204 ], [ 72.9398, 20.2865 ], [ 72.8686, 20.3222 ], [ 72.9859, 20.3464 ], [ 72.9652, 20.4552 ], [ 72.9799, 20.6162 ], [ 72.8045, 21.0835 ], [ 72.7554, 21.0651 ], [ 72.7073, 21.2694 ], [ 72.8194, 21.5356 ], [ 72.9366, 21.5824 ], [ 72.9439, 21.6346 ], [ 72.6548, 21.6335 ], [ 72.7087, 21.8715 ], [ 72.6551, 21.8585 ], [ 72.6181, 21.9063 ], [ 72.6081, 22.1 ], [ 72.6713, 22.1612 ], [ 72.6385, 22.1777 ], [ 72.5415, 22.1524 ], [ 72.4901, 22.263 ], [ 72.4495, 22.1036 ], [ 72.1544, 22.0178 ], [ 71.8705, 22.085 ], [ 71.661, 22.1796 ], [ 71.6713, 22.4051 ], [ 71.887, 22.4175 ], [ 71.9523, 22.5871 ], [ 72.0662, 22.4039 ], [ 72.1603, 22.5277 ], [ 72.0366, 22.6629 ], [ 72.0964, 22.7255 ], [ 71.994, 22.9212 ], [ 72.0897, 23.0214 ], [ 71.8921, 23.1048 ], [ 72.0245, 23.231 ], [ 71.8585, 23.2213 ], [ 71.8982, 23.3895 ], [ 71.9989, 23.4191 ], [ 71.9772, 23.5481 ], [ 71.7927, 23.4306 ], [ 71.429, 23.4914 ], [ 71.4033, 23.6674 ], [ 71.3018, 23.6492 ], [ 71.1806, 23.7243 ], [ 70.9815, 23.6404 ], [ 71.1397, 23.9227 ], [ 71.3199, 23.9225 ], [ 71.3221, 24.0646 ], [ 71.2334, 24.2128 ], [ 71.4291, 24.3555 ], [ 71.3686, 24.47 ], [ 71.263, 24.4987 ], [ 71.2842, 24.6859 ], [ 71.4023, 24.7044 ], [ 71.7154, 24.6372 ], [ 71.7433, 24.6767 ], [ 71.9152, 24.6835 ] ] ] } },
{ "type": "Feature", "properties": { "rid": 3, "name": "KONKAN & GOA", "zone": "Central" }, "geometry": { "type": "Polygon", "coordinates": [ [ [ 73.2308, 20.0784 ], [ 73.2418, 20.1008 ], [ 73.464, 19.9803 ], [ 73.4117, 19.8142 ], [ 73.5069, 19.7113 ], [ 73.612, 19.5518 ], [ 73.7209, 19.4707 ], [ 73.6929, 19.4268 ], [ 73.8088, 19.353 ], [ 73.6683, 19.3046 ], [ 73.6712, 19.2406 ], [ 73.5767, 19.1727 ], [ 73.5282, 19.0852 ], [ 73.5482, 18.972 ], [ 73.4458, 18.9179 ], [ 73.3422, 18.7285 ], [ 73.4067, 18.6243 ], [ 73.2961, 18.5912 ], [ 73.4388, 18.4047 ], [ 73.5055, 18.2435 ], [ 73.6806, 18.1577 ], [ 73.6232, 18.1056 ], [ 73.6425, 17.9994 ], [ 73.5578, 17.8893 ], [ 73.608, 17.7558 ], [ 73.6112, 17.6776 ], [ 73.7231, 17.6675 ], [ 73.7514, 17.5189 ], [ 73.6789, 17.4734 ], [ 73.6829, 17.3738 ], [ 73.7361, 17.1548 ], [ 73.8323, 17.1583 ], [ 74.0556, 16.9379 ], [ 74.5264, 16.825 ], [ 74.7072, 16.7143 ], [ 74.6778, 16.7074 ], [ 74.652, 16.6023 ], [ 74.5455, 16.5774 ], [ 74.5432, 16.6247 ], [ 74.4347, 16.6397 ], [ 74.3669, 16.545 ], [ 74.238, 16.5343 ], [ 74.3256, 16.4045 ], [ 74.3065, 16.2981 ], [ 74.4382, 16.241 ], [ 74.4602, 16.1086 ], [ 74.3468, 16.0695 ], [ 74.418, 16.0332 ], [ 74.3161, 15.7638 ], [ 74.199, 15.7245 ], [ 74.1493, 15.7799 ], [ 74.0827, 15.661 ], [ 74.2397, 15.6466 ], [ 74.2125, 15.4609 ], [ 74.2847, 15.3513 ], [ 74.2916, 15.3124 ], [ 74.1955, 15.2551 ], [ 74.2644, 15.1891 ], [ 74.2193, 14.963 ], [ 74.0946, 14.942 ], [ 74.0263, 14.9541 ], [ 73.9475, 15.0588 ], [ 73.9008, 15.3019 ], [ 73.8184, 15.3618 ], [ 73.8577, 15.3927 ], [ 73.7641, 15.562 ], [ 73.7053, 15.7192 ], [ 73.5996, 15.9281 ], [ 73.5262, 15.9389 ], [ 73.3407, 16.5311 ], [ 73.3704, 16.5646 ], [ 73.3117, 17.0695 ], [ 73.2325, 17.2902 ], [ 73.2841, 17.2806 ], [ 73.2079, 17.3824 ], [ 73.1927, 17.5409 ], [ 73.2595, 17.5736 ], [ 73.1886, 17.6031 ], [ 73.0927, 17.9263 ], [ 73.119, 18.008 ], [ 73.0415, 18.027 ], [ 72.9908, 18.2187 ], [ 72.9978, 18.2682 ], [ 73.0436, 18.2668 ], [ 72.969, 18.363 ], [ 72.9869, 18.542 ], [ 72.9256, 18.7259 ], [ 72.9563, 18.7919 ], [ 73.0233, 18.7773 ], [ 73.0202, 18.8358 ], [ 72.9463, 18.8799 ], [ 73.0549, 19.0942 ], [ 72.9277, 18.987 ], [ 72.8946, 18.9841 ], [ 72.8379, 19.3009 ], [ 72.9278, 19.3595 ], [ 72.8199, 19.3886 ], [ 72.8091, 19.495 ], [ 72.8719, 19.5203 ], [ 72.8647, 19.5823 ], [ 72.773, 19.5663 ], [ 72.7221, 19.8227 ], [ 72.736, 19.9504 ], [ 72.8016, 19.9572 ], [ 72.8686, 20.3222 ], [ 72.9398, 20.2865 ], [ 72.9925, 20.2204 ], [ 72.9879, 20.1302 ], [ 73.0636, 20.0779 ], [ 73.2308, 20.0784 ] ] ] } },
{ "type": "Feature", "properties": { "rid": 4, "name": "MADHYA MAHARASHTRA", "zone": "Central" }, "geometry": { "type": "Polygon", "coordinates": [ [ [ 74.0556, 16.9379 ], [ 73.8323, 17.1583 ], [ 73.7361, 17.1548 ], [ 73.6829, 17.3738 ], [ 73.6789, 17.4734 ], [ 73.7514, 17.5189 ], [ 73.7231, 17.6675 ], [ 73.6112, 17.6776 ], [ 73.608, 17.7558 ], [ 73.5578, 17.8893 ], [ 73.6425, 17.9994 ], [ 73.6232, 18.1056 ], [ 73.6806, 18.1577 ], [ 73.5055, 18.2435 ], [ 73.4388, 18.4047 ], [ 73.2961, 18.5912 ], [ 73.4067, 18.6243 ], [ 73.3422, 18.7285 ], [ 73.4458, 18.9179 ], [ 73.5482, 18.972 ], [ 73.5282, 19.0852 ], [ 73.5767, 19.1727 ], [ 73.6712, 19.2406 ], [ 73.6683, 19.3046 ], [ 73.8088, 19.353 ], [ 73.6929, 19.4268 ], [ 73.7209, 19.4707 ], [ 73.612, 19.5518 ], [ 73.5069, 19.7113 ], [ 73.4117, 19.8142 ], [ 73.464, 19.9803 ], [ 73.2418, 20.1008 ], [ 73.2666, 20.1509 ], [ 73.4801, 20.2083 ], [ 73.4378, 20.4084 ], [ 73.5307, 20.4891 ], [ 73.4449, 20.6637 ], [ 73.5196, 20.729 ], [ 73.6837, 20.5732 ], [ 73.7655, 20.5746 ], [ 73.8368, 20.5951 ], [ 73.8609, 20.7033 ], [ 73.985, 20.7447 ], [ 73.9414, 20.967 ], [ 73.7813, 21.0915 ], [ 73.7859, 21.1562 ], [ 73.9597, 21.2687 ], [ 74.0006, 21.3592 ], [ 74.4094, 21.4787 ], [ 74.4025, 21.5201 ], [ 74.2185, 21.5364 ], [ 73.9198, 21.4809 ], [ 73.8541, 21.6138 ], [ 73.9533, 21.6626 ], [ 73.8762, 21.7975 ], [ 73.9772, 21.8435 ], [ 74.075, 21.824 ], [ 74.2077, 21.9356 ], [ 74.3586, 21.91 ], [ 74.5223, 21.9813 ], [ 74.5983, 21.8797 ], [ 74.6039, 21.7304 ], [ 74.6516, 21.665 ], [ 75.0866, 21.5572 ], [ 75.1969, 21.4012 ], [ 75.3797, 21.3225 ], [ 75.5167, 21.3702 ], [ 76.0907, 21.3519 ], [ 76.1914, 21.0631 ], [ 76.4008, 21.0522 ], [ 76.3651, 20.9736 ], [ 76.297, 20.9574 ], [ 76.1808, 21.0185 ], [ 76.0847, 20.9299 ], [ 76.1239, 20.8953 ], [ 76.0585, 20.8004 ], [ 75.9986, 20.7701 ], [ 76.0017, 20.6772 ], [ 76.0209, 20.6318 ], [ 75.9135, 20.5864 ], [ 75.8521, 20.6061 ], [ 75.8308, 20.5625 ], [ 75.7072, 20.6231 ], [ 75.6757, 20.6579 ], [ 75.5641, 20.5901 ], [ 75.3997, 20.5205 ], [ 75.36, 20.5692 ], [ 75.2839, 20.5739 ], [ 75.2022, 20.5283 ], [ 75.1157, 20.411 ], [ 75.1106, 20.3466 ], [ 75.0593, 20.302 ], [ 74.9898, 20.3353 ], [ 74.9027, 20.2394 ], [ 74.9363, 20.1549 ], [ 74.7961, 20.2571 ], [ 74.731, 20.1834 ], [ 74.7271, 20.0904 ], [ 74.6731, 19.9314 ], [ 74.602, 19.8218 ], [ 74.6645, 19.7669 ], [ 74.8486, 19.6877 ], [ 74.9336, 19.6334 ], [ 75.1615, 19.5839 ], [ 75.2921, 19.5166 ], [ 75.3487, 19.4041 ], [ 75.4686, 19.422 ], [ 75.531, 19.3596 ], [ 75.5045, 19.2516 ], [ 75.4002, 19.2198 ], [ 75.4392, 19.1782 ], [ 75.4373, 19.1245 ], [ 75.4863, 19.1188 ], [ 75.42, 19.0775 ], [ 75.3104, 19.0956 ], [ 75.2847, 19.0805 ], [ 75.344, 18.993 ], [ 75.2956, 18.9808 ], [ 75.2646, 19.0084 ], [ 75.2631, 19.0512 ], [ 75.2118, 19.1211 ], [ 75.1794, 19.0808 ], [ 75.2004, 19.0171 ], [ 75.0789, 19.0561 ], [ 75.1144, 19.1144 ], [ 74.9793, 19.11 ], [ 74.9407, 19.1373 ], [ 74.9199, 19.0902 ], [ 74.9216, 19.0439 ], [ 74.96, 19.0201 ], [ 74.9466, 18.9768 ], [ 74.906, 18.9576 ], [ 74.8038, 18.9792 ], [ 74.964, 18.806 ], [ 75.1644, 18.6481 ], [ 75.1691, 18.7304 ], [ 75.2555, 18.7259 ], [ 75.3315, 18.8068 ], [ 75.3814, 18.7726 ], [ 75.3983, 18.8303 ], [ 75.4561, 18.782 ], [ 75.4613, 18.7393 ], [ 75.5515, 18.7348 ], [ 75.5793, 18.6856 ], [ 75.4984, 18.6367 ], [ 75.4194, 18.5308 ], [ 75.3511, 18.5573 ], [ 75.3114, 18.5097 ], [ 75.2923, 18.4091 ], [ 75.3964, 18.3157 ], [ 75.4309, 18.1738 ], [ 75.5257, 18.13 ], [ 75.5644, 18.2062 ], [ 75.6509, 18.3123 ], [ 75.7208, 18.3536 ], [ 75.715, 18.4213 ], [ 75.7631, 18.4405 ], [ 75.8061, 18.3809 ], [ 75.9005, 18.3549 ], [ 75.9405, 18.2666 ], [ 75.9453, 18.0986 ], [ 76.01, 18.061 ], [ 75.9752, 17.9707 ], [ 75.9115, 17.9762 ], [ 75.8808, 18.004 ], [ 75.833, 17.9777 ], [ 75.8511, 17.8673 ], [ 75.9195, 17.8262 ], [ 76.0092, 17.8214 ], [ 76.015, 17.75 ], [ 76.0892, 17.7662 ], [ 76.1568, 17.75 ], [ 76.1729, 17.7074 ], [ 76.2071, 17.6832 ], [ 76.2953, 17.7355 ], [ 76.4576, 17.6187 ], [ 76.4012, 17.5551 ], [ 76.3292, 17.5642 ], [ 76.3926, 17.331 ], [ 76.3651, 17.298 ], [ 76.0632, 17.3312 ], [ 76.0213, 17.2952 ], [ 75.8985, 17.2837 ], [ 75.6685, 17.4393 ], [ 75.6025, 17.3535 ], [ 75.6359, 17.2882 ], [ 75.6895, 16.9583 ], [ 75.356, 16.9573 ], [ 75.2685, 16.9378 ], [ 75.3134, 16.8774 ], [ 75.1911, 16.8181 ], [ 75.0627, 16.9706 ], [ 74.9198, 16.9599 ], [ 74.8998, 16.7596 ], [ 74.7072, 16.7143 ], [ 74.5264, 16.825 ], [ 74.0556, 16.9379 ] ] ] } },
{ "type": "Feature", "properties": { "rid": 5, "name": "MARATHWADA", "zone": "Central" }, "geometry": { "type": "Polygon", "coordinates": [ [ [ 76.0209, 20.6318 ], [ 76.0346, 20.5995 ], [ 75.9921, 20.5053 ], [ 75.9011, 20.5026 ], [ 75.9435, 20.368 ], [ 75.9311, 20.2818 ], [ 76.0884, 20.3435 ], [ 76.1875, 20.3248 ], [ 76.0822, 20.0573 ], [ 75.9782, 19.9971 ], [ 76.0475, 19.9562 ], [ 76.1415, 19.8515 ], [ 76.3069, 19.8845 ], [ 76.3965, 19.9226 ], [ 76.4721, 19.9246 ], [ 76.5651, 19.8482 ], [ 76.6936, 19.8514 ], [ 76.827, 19.9548 ], [ 76.918, 19.9497 ], [ 77.0079, 19.9876 ], [ 77.1147, 19.9541 ], [ 77.2123, 19.9921 ], [ 77.2522, 19.907 ], [ 77.3282, 19.8942 ], [ 77.3995, 19.7525 ], [ 77.6522, 19.6069 ], [ 77.6609, 19.5498 ], [ 77.7372, 19.5154 ], [ 77.6856, 19.4499 ], [ 77.8218, 19.4381 ], [ 77.8729, 19.5321 ], [ 77.9873, 19.4767 ], [ 78.1157, 19.4788 ], [ 78.1899, 19.5588 ], [ 78.1959, 19.6449 ], [ 77.9676, 19.72 ], [ 77.8529, 19.7825 ], [ 77.9036, 19.898 ], [ 78.0395, 19.9218 ], [ 78.1986, 19.9244 ], [ 78.3351, 19.866 ], [ 78.3287, 19.8202 ], [ 78.3734, 19.7499 ], [ 78.3124, 19.6428 ], [ 78.3358, 19.5298 ], [ 78.3122, 19.4145 ], [ 78.2166, 19.3564 ], [ 78.2138, 19.2199 ], [ 78.0871, 19.1661 ], [ 77.9851, 19.2981 ], [ 77.8798, 19.2602 ], [ 77.8757, 19.0791 ], [ 77.7773, 18.9566 ], [ 77.8737, 18.8952 ], [ 77.8611, 18.7846 ], [ 77.7746, 18.6576 ], [ 77.799, 18.5584 ], [ 77.5766, 18.483 ], [ 77.5842, 18.4134 ], [ 77.5338, 18.3916 ], [ 77.5693, 18.273 ], [ 77.3813, 18.2841 ], [ 77.3935, 18.3939 ], [ 77.2836, 18.3862 ], [ 77.1836, 18.2894 ], [ 77.2154, 18.2368 ], [ 77.1217, 18.1196 ], [ 76.9284, 18.0977 ], [ 76.9601, 18.0591 ], [ 76.8929, 17.8752 ], [ 76.7622, 17.8456 ], [ 76.8127, 17.7849 ], [ 76.7146, 17.6656 ], [ 76.5468, 17.719 ], [ 76.4576, 17.6187 ], [ 76.2953, 17.7355 ], [ 76.2071, 17.6832 ], [ 76.1729, 17.7074 ], [ 76.1568, 17.75 ], [ 76.0892, 17.7662 ], [ 76.015, 17.75 ], [ 76.0092, 17.8214 ], [ 75.9195, 17.8262 ], [ 75.8511, 17.8673 ], [ 75.833, 17.9777 ], [ 75.8808, 18.004 ], [ 75.9115, 17.9762 ], [ 75.9752, 17.9707 ], [ 76.01, 18.061 ], [ 75.9453, 18.0986 ], [ 75.9405, 18.2666 ], [ 75.9005, 18.3549 ], [ 75.8061, 18.3809 ], [ 75.7631, 18.4405 ], [ 75.715, 18.4213 ], [ 75.7208, 18.3536 ], [ 75.6509, 18.3123 ], [ 75.5644, 18.2062 ], [ 75.5257, 18.13 ], [ 75.4309, 18.1738 ], [ 75.3964, 18.3157 ], [ 75.2923, 18.4091 ], [ 75.3114, 18.5097 ], [ 75.3511, 18.5573 ], [ 75.4194, 18.5308 ], [ 75.4984, 18.6367 ], [ 75.5793, 18.6856 ], [ 75.5515, 18.7348 ], [ 75.4613, 18.7393 ], [ 75.4561, 18.782 ], [ 75.3983, 18.8303 ], [ 75.3814, 18.7726 ], [ 75.3315, 18.8068 ], [ 75.2555, 18.7259 ], [ 75.1691, 18.7304 ], [ 75.1644, 18.6481 ], [ 74.964, 18.806 ], [ 74.8038, 18.9792 ], [ 74.906, 18.9576 ], [ 74.9466, 18.9768 ], [ 74.96, 19.0201 ], [ 74.9216, 19.0439 ], [ 74.9199, 19.0902 ], [ 74.9407, 19.1373 ], [ 74.9793, 19.11 ], [ 75.1144, 19.1144 ], [ 75.0789, 19.0561 ], [ 75.2004, 19.0171 ], [ 75.1794, 19.0808 ], [ 75.2118, 19.1211 ], [ 75.2631, 19.0512 ], [ 75.2646, 19.0084 ], [ 75.2956, 18.9808 ], [ 75.344, 18.993 ], [ 75.2847, 19.0805 ], [ 75.3104, 19.0956 ], [ 75.42, 19.0775 ], [ 75.4863, 19.1188 ], [ 75.4373, 19.1245 ], [ 75.4392, 19.1782 ], [ 75.4002, 19.2198 ], [ 75.5045, 19.2516 ], [ 75.531, 19.3596 ], [ 75.4686, 19.422 ], [ 75.3487, 19.4041 ], [ 75.2921, 19.5166 ], [ 75.1615, 19.5839 ], [ 74.9336, 19.6334 ], [ 74.8486, 19.6877 ], [ 74.6645, 19.7669 ], [ 74.602, 19.8218 ], [ 74.6731, 19.9314 ], [ 74.7271, 20.0904 ], [ 74.731, 20.1834 ], [ 74.7961, 20.2571 ], [ 74.9363, 20.1549 ], [ 74.9027, 20.2394 ], [ 74.9898, 20.3353 ], [ 75.0593, 20.302 ], [ 75.1106, 20.3466 ], [ 75.1157, 20.411 ], [ 75.2022, 20.5283 ], [ 75.2839, 20.5739 ], [ 75.36, 20.5692 ], [ 75.3997, 20.5205 ], [ 75.5641, 20.5901 ], [ 75.6757, 20.6579 ], [ 75.7072, 20.6231 ], [ 75.8308, 20.5625 ], [ 75.8521, 20.6061 ], [ 75.9135, 20.5864 ], [ 76.0209, 20.6318 ] ] ] } },
{ "type": "Feature", "properties": { "rid": 6, "name": "ORISSA", "zone": "Central" }, "geometry": { "type": "Polygon", "coordinates": [ [ [ 83.9861, 22.4676 ], [ 84.2656, 22.2854 ], [ 84.4135, 22.2943 ], [ 84.518, 22.3583 ], [ 85.0671, 22.3791 ], [ 85.0795, 22.317 ], [ 84.9995, 22.0101 ], [ 85.2392, 21.9709 ], [ 85.341, 22.1014 ], [ 85.6687, 22.0115 ], [ 85.7936, 22.0354 ], [ 85.7624, 21.9345 ], [ 85.8013, 21.9162 ], [ 85.9206, 21.954 ], [ 85.9969, 22.1249 ], [ 85.9599, 22.1619 ], [ 85.9583, 22.4581 ], [ 86.016, 22.4723 ], [ 86.6614, 22.1625 ], [ 86.6703, 22.1032 ], [ 86.9313, 21.9982 ], [ 86.9855, 21.8005 ], [ 87.0461, 21.8064 ], [ 87.1228, 21.9251 ], [ 87.1882, 21.7958 ], [ 87.3852, 21.74 ], [ 87.4548, 21.5384 ], [ 87.0351, 21.4234 ], [ 86.7904, 21.1396 ], [ 86.9508, 20.7522 ], [ 86.8901, 20.7395 ], [ 87.0134, 20.6628 ], [ 86.7774, 20.4782 ], [ 86.7178, 20.3874 ], [ 86.7506, 20.3705 ], [ 86.7759, 20.4383 ], [ 86.7899, 20.3422 ], [ 86.3951, 19.9371 ], [ 86.2485, 19.8491 ], [ 85.5874, 19.6606 ], [ 85.552, 19.5967 ], [ 85.1561, 19.4091 ], [ 84.8191, 19.0865 ], [ 84.7318, 19.0795 ], [ 84.622, 19.1036 ], [ 84.6411, 19.052 ], [ 84.4165, 18.9479 ], [ 84.3917, 18.8519 ], [ 84.2815, 18.7402 ], [ 83.8795, 18.7918 ], [ 83.8151, 18.9724 ], [ 83.7716, 18.9037 ], [ 83.6745, 18.9781 ], [ 83.6383, 19.1172 ], [ 83.4432, 18.9464 ], [ 83.3536, 18.9593 ], [ 83.3238, 18.9357 ], [ 83.4067, 18.8292 ], [ 83.2544, 18.728 ], [ 83.1452, 18.7336 ], [ 83.0206, 18.5853 ], [ 83.0551, 18.3367 ], [ 82.9247, 18.3398 ], [ 82.8332, 18.4054 ], [ 82.8058, 18.3343 ], [ 82.6412, 18.2096 ], [ 82.579, 18.2142 ], [ 82.5211, 18.4418 ], [ 82.3907, 18.4548 ], [ 82.3353, 18.397 ], [ 82.3654, 18.2498 ], [ 82.2854, 18.0252 ], [ 82.2402, 17.9923 ], [ 82.1172, 18.0246 ], [ 82.0006, 17.9535 ], [ 81.9081, 17.9379 ], [ 81.6331, 17.8387 ], [ 81.4033, 17.7769 ], [ 81.4705, 17.9017 ], [ 81.4952, 18.1504 ], [ 81.9746, 18.5419 ], [ 81.9366, 18.6213 ], [ 82.0868, 18.6975 ], [ 82.216, 18.8761 ], [ 82.1677, 19.3623 ], [ 82.0267, 19.5256 ], [ 82.0139, 19.7596 ], [ 81.8552, 19.87 ], [ 81.8723, 19.9867 ], [ 81.9486, 20.0425 ], [ 82.25, 19.945 ], [ 82.3442, 19.8027 ], [ 82.395, 19.8521 ], [ 82.591, 19.8242 ], [ 82.6045, 19.7498 ], [ 82.7011, 19.8959 ], [ 82.4624, 19.9634 ], [ 82.3751, 20.0398 ], [ 82.4037, 20.3827 ], [ 82.3404, 20.7804 ], [ 82.4807, 20.796 ], [ 82.6392, 21.0199 ], [ 82.6344, 21.0941 ], [ 82.6752, 21.1074 ], [ 83.1462, 21.0794 ], [ 83.2723, 21.3134 ], [ 83.3717, 21.3131 ], [ 83.3385, 21.4796 ], [ 83.4344, 21.6009 ], [ 83.3824, 21.6675 ], [ 83.5665, 21.7488 ], [ 83.5894, 21.8208 ], [ 83.5257, 21.9502 ], [ 83.5525, 22.0559 ], [ 84.0346, 22.327 ], [ 83.9575, 22.4451 ], [ 83.9861, 22.4676 ] ] ] } },
{ "type": "Feature", "properties": { "rid": 7, "name": "SAURASHTRA & KUTCH", "zone": "Central" }, "geometry": { "type": "MultiPolygon", "coordinates": [ [ [ [ 72.9208, 20.374 ], [ 72.9652, 20.4552 ], [ 72.9859, 20.3464 ], [ 72.8686, 20.3222 ], [ 72.9208, 20.374 ] ] ], [ [ [ 71.263, 24.4987 ], [ 71.3686, 24.47 ], [ 71.4291, 24.3555 ], [ 71.2334, 24.2128 ], [ 71.3221, 24.0646 ], [ 71.3199, 23.9225 ], [ 71.1397, 23.9227 ], [ 70.9815, 23.6404 ], [ 71.1806, 23.7243 ], [ 71.3018, 23.6492 ], [ 71.4033, 23.6674 ], [ 71.429, 23.4914 ], [ 71.7927, 23.4306 ], [ 71.9772, 23.5481 ], [ 71.9989, 23.4191 ], [ 71.8982, 23.3895 ], [ 71.8585, 23.2213 ], [ 72.0245, 23.231 ], [ 71.8921, 23.1048 ], [ 72.0897, 23.0214 ], [ 71.994, 22.9212 ], [ 72.0964, 22.7255 ], [ 72.0366, 22.6629 ], [ 72.1603, 22.5277 ], [ 72.0662, 22.4039 ], [ 71.9523, 22.5871 ], [ 71.887, 22.4175 ], [ 71.6713, 22.4051 ], [ 71.661, 22.1796 ], [ 71.8705, 22.085 ], [ 72.1544, 22.0178 ], [ 72.4495, 22.1036 ], [ 72.44, 22.0665 ], [ 72.3751, 21.9754 ], [ 72.4275, 21.6031 ], [ 72.2408, 21.198 ], [ 71.7498, 20.9791 ], [ 71.5514, 20.8612 ], [ 71.4951, 20.8813 ], [ 71.4776, 20.8324 ], [ 71.2824, 20.8006 ], [ 71.1176, 20.7337 ], [ 70.9452, 20.7053 ], [ 70.7238, 20.8101 ], [ 70.3479, 21.0301 ], [ 69.5188, 21.886 ], [ 69.3546, 22.0053 ], [ 69.1374, 22.3044 ], [ 69.1815, 22.5114 ], [ 69.231, 22.4303 ], [ 69.3573, 22.4188 ], [ 69.3843, 22.2958 ], [ 69.8256, 22.3888 ], [ 69.8898, 22.4612 ], [ 70.3362, 22.5502 ], [ 70.4983, 22.8539 ], [ 70.6041, 22.9414 ], [ 70.6534, 23.0351 ], [ 70.5935, 23.0381 ], [ 70.4628, 22.9246 ], [ 70.4259, 23.0612 ], [ 70.4024, 22.9509 ], [ 70.0334, 22.8693 ], [ 69.8987, 22.7727 ], [ 69.3616, 22.8917 ], [ 68.8555, 23.1799 ], [ 68.7812, 23.259 ], [ 68.8927, 23.2769 ], [ 68.8546, 23.3676 ], [ 68.7964, 23.3655 ], [ 68.7158, 23.4709 ], [ 68.6155, 23.4527 ], [ 68.6469, 23.5621 ], [ 68.6065, 23.6058 ], [ 68.7203, 23.9252 ], [ 68.6618, 23.9347 ], [ 68.655, 23.8007 ], [ 68.5137, 23.6104 ], [ 68.3586, 23.6343 ], [ 68.3711, 23.913 ], [ 68.4146, 23.9869 ], [ 68.57, 24.0217 ], [ 68.5922, 24.3435 ], [ 68.6379, 24.3842 ], [ 68.7142, 24.3007 ], [ 68.758, 24.3394 ], [ 68.8327, 24.2909 ], [ 69.4461, 24.3253 ], [ 69.5894, 24.239 ], [ 69.7832, 24.2028 ], [ 69.899, 24.2578 ], [ 69.9835, 24.3764 ], [ 70.4153, 24.4619 ], [ 70.4693, 24.2556 ], [ 70.6527, 24.2477 ], [ 70.9616, 24.45 ], [ 70.8551, 24.5372 ], [ 70.9784, 24.7265 ], [ 71.0139, 24.6885 ], [ 71.0719, 24.6901 ], [ 71.1189, 24.6487 ], [ 71.2842, 24.6859 ], [ 71.263, 24.4987 ] ] ] ] } },
{ "type": "Feature", "properties": { "rid": 8, "name": "VIDARBHA", "zone": "Central" }, "geometry": { "type": "Polygon", "coordinates": [ [ [ 78.3351, 19.866 ], [ 78.1986, 19.9244 ], [ 78.0395, 19.9218 ], [ 77.9036, 19.898 ], [ 77.8529, 19.7825 ], [ 77.9676, 19.72 ], [ 78.1959, 19.6449 ], [ 78.1899, 19.5588 ], [ 78.1157, 19.4788 ], [ 77.9873, 19.4767 ], [ 77.8729, 19.5321 ], [ 77.8218, 19.4381 ], [ 77.6856, 19.4499 ], [ 77.7372, 19.5154 ], [ 77.6609, 19.5498 ], [ 77.6522, 19.6069 ], [ 77.3995, 19.7525 ], [ 77.3282, 19.8942 ], [ 77.2522, 19.907 ], [ 77.2123, 19.9921 ], [ 77.1147, 19.9541 ], [ 77.0079, 19.9876 ], [ 76.918, 19.9497 ], [ 76.827, 19.9548 ], [ 76.6936, 19.8514 ], [ 76.5651, 19.8482 ], [ 76.4721, 19.9246 ], [ 76.3965, 19.9226 ], [ 76.3069, 19.8845 ], [ 76.1415, 19.8515 ], [ 76.0475, 19.9562 ], [ 75.9782, 19.9971 ], [ 76.0822, 20.0573 ], [ 76.1875, 20.3248 ], [ 76.0884, 20.3435 ], [ 75.9311, 20.2818 ], [ 75.9435, 20.368 ], [ 75.9011, 20.5026 ], [ 75.9921, 20.5053 ], [ 76.0346, 20.5995 ], [ 76.0017, 20.6772 ], [ 75.9986, 20.7701 ], [ 76.0585, 20.8004 ], [ 76.1239, 20.8953 ], [ 76.0847, 20.9299 ], [ 76.1808, 21.0185 ], [ 76.297, 20.9574 ], [ 76.3651, 20.9736 ], [ 76.4008, 21.0522 ], [ 76.4178, 21.0512 ], [ 76.513, 21.1453 ], [ 76.6973, 21.2433 ], [ 76.699, 21.3137 ], [ 76.8349, 21.4262 ], [ 76.8366, 21.5426 ], [ 76.9941, 21.5606 ], [ 77.0602, 21.661 ], [ 77.5244, 21.7263 ], [ 77.6231, 21.4928 ], [ 77.4713, 21.492 ], [ 77.4823, 21.4515 ], [ 77.5446, 21.3505 ], [ 77.7471, 21.3192 ], [ 78.0512, 21.3647 ], [ 78.2285, 21.4927 ], [ 78.4402, 21.5607 ], [ 78.4653, 21.5378 ], [ 78.4765, 21.4591 ], [ 78.6398, 21.4012 ], [ 78.9626, 21.4431 ], [ 78.9806, 21.531 ], [ 79.2308, 21.597 ], [ 79.2802, 21.6718 ], [ 79.4701, 21.6132 ], [ 79.5798, 21.5155 ], [ 79.8317, 21.4528 ], [ 79.9657, 21.5079 ], [ 80.3278, 21.53 ], [ 80.4343, 21.4233 ], [ 80.4389, 21.3206 ], [ 80.702, 21.2779 ], [ 80.6968, 21.227 ], [ 80.4647, 21.0762 ], [ 80.471, 20.9168 ], [ 80.5681, 20.7736 ], [ 80.5901, 20.6353 ], [ 80.5081, 20.5857 ], [ 80.6151, 20.4971 ], [ 80.6209, 20.2624 ], [ 80.421, 20.2151 ], [ 80.4205, 20.101 ], [ 80.5168, 20.0783 ], [ 80.5455, 19.914 ], [ 80.5198, 19.865 ], [ 80.4424, 19.9006 ], [ 80.4294, 19.8431 ], [ 80.5, 19.8214 ], [ 80.4065, 19.7625 ], [ 80.5605, 19.7469 ], [ 80.6676, 19.5737 ], [ 80.8426, 19.4919 ], [ 80.8971, 19.4396 ], [ 80.835, 19.3648 ], [ 80.8816, 19.307 ], [ 80.6864, 19.2218 ], [ 80.6331, 19.34 ], [ 80.5568, 19.3571 ], [ 80.4189, 19.1201 ], [ 80.2974, 19.0481 ], [ 80.2727, 18.9749 ], [ 80.3766, 18.7832 ], [ 80.2524, 18.6889 ], [ 80.0953, 18.6996 ], [ 79.9227, 18.7595 ], [ 79.9834, 18.9377 ], [ 79.879, 19.0344 ], [ 79.8859, 19.0808 ], [ 80.0192, 19.2885 ], [ 80.0046, 19.3405 ], [ 79.845, 19.4374 ], [ 79.8147, 19.5163 ], [ 79.5002, 19.4655 ], [ 79.2844, 19.5572 ], [ 79.2299, 19.4105 ], [ 78.9582, 19.5037 ], [ 78.8096, 19.6322 ], [ 78.8014, 19.7018 ], [ 78.7424, 19.7405 ], [ 78.4855, 19.7023 ], [ 78.3351, 19.866 ] ] ] } },
{ "type": "Feature", "properties": { "rid": 9, "name": "WEST MADHYA PRADESH", "zone": "Central" }, "geometry": { "type": "Polygon", "coordinates": [ [ [ 78.206, 24.3929 ], [ 78.0928, 24.3432 ], [ 78.07, 24.1995 ], [ 78.1393, 24.0098 ], [ 78.2428, 24.0355 ], [ 78.2885, 23.714 ], [ 78.3809, 23.632 ], [ 78.469, 23.7648 ], [ 78.5123, 23.5386 ], [ 78.7184, 23.6015 ], [ 78.6178, 23.4328 ], [ 78.7627, 23.2797 ], [ 78.7913, 23.1128 ], [ 78.4711, 22.9767 ], [ 78.6408, 22.8599 ], [ 78.7084, 22.6697 ], [ 78.515, 22.6907 ], [ 78.5439, 22.512 ], [ 78.5338, 22.3566 ], [ 78.3527, 22.4254 ], [ 78.2628, 22.4239 ], [ 78.2677, 22.1732 ], [ 78.3601, 22.0314 ], [ 78.3751, 21.9122 ], [ 78.5159, 21.9144 ], [ 78.4672, 21.7704 ], [ 78.4584, 21.544 ], [ 78.4402, 21.5607 ], [ 78.2285, 21.4927 ], [ 78.0512, 21.3647 ], [ 77.7471, 21.3192 ], [ 77.5446, 21.3505 ], [ 77.4823, 21.4515 ], [ 77.4713, 21.492 ], [ 77.6231, 21.4928 ], [ 77.5244, 21.7263 ], [ 77.0602, 21.661 ], [ 76.9941, 21.5606 ], [ 76.8366, 21.5426 ], [ 76.8349, 21.4262 ], [ 76.699, 21.3137 ], [ 76.6973, 21.2433 ], [ 76.513, 21.1453 ], [ 76.4178, 21.0512 ], [ 76.1914, 21.0631 ], [ 76.0907, 21.3519 ], [ 75.5167, 21.3702 ], [ 75.3797, 21.3225 ], [ 75.1969, 21.4012 ], [ 75.0866, 21.5572 ], [ 74.6516, 21.665 ], [ 74.6039, 21.7304 ], [ 74.5983, 21.8797 ], [ 74.5223, 21.9813 ], [ 74.3586, 21.91 ], [ 74.2077, 21.9356 ], [ 74.2132, 22.1111 ], [ 74.1371, 22.3009 ], [ 74.2451, 22.2981 ], [ 74.3206, 22.3685 ], [ 74.2412, 22.4254 ], [ 74.173, 22.4115 ], [ 74.1363, 22.513 ], [ 74.1824, 22.4717 ], [ 74.4349, 22.5945 ], [ 74.5456, 22.7757 ], [ 74.5555, 22.8184 ], [ 74.4194, 22.8986 ], [ 74.3971, 22.9992 ], [ 74.5948, 23.0457 ], [ 74.8351, 23.1332 ], [ 74.63, 23.2636 ], [ 74.7053, 23.4004 ], [ 74.8594, 23.456 ], [ 75.007, 23.5491 ], [ 75.0277, 23.6857 ], [ 74.7764, 24.0686 ], [ 74.8125, 24.1705 ], [ 74.6365, 24.1944 ], [ 74.7115, 24.4105 ], [ 74.6461, 24.4194 ], [ 74.642, 24.5047 ], [ 74.7069, 24.7063 ], [ 74.8049, 24.5698 ], [ 74.8843, 24.6985 ], [ 74.744, 24.7276 ], [ 74.7262, 24.9188 ], [ 74.93, 24.7861 ], [ 75.0289, 24.8495 ], [ 75.0658, 25.0023 ], [ 75.1167, 25.0027 ], [ 75.2718, 24.9651 ], [ 75.2114, 24.8633 ], [ 75.1686, 24.8999 ], [ 75.1869, 24.8185 ], [ 75.3489, 24.8036 ], [ 75.2611, 24.7565 ], [ 75.106, 24.8264 ], [ 75.1429, 24.7632 ], [ 75.0887, 24.6794 ], [ 75.4873, 24.6111 ], [ 75.6867, 24.6947 ], [ 75.7342, 24.5537 ], [ 75.8081, 24.4991 ], [ 75.7807, 24.3965 ], [ 75.6609, 24.3655 ], [ 75.6386, 24.2943 ], [ 75.7063, 24.2206 ], [ 75.6514, 24.076 ], [ 75.7136, 24.0374 ], [ 75.6503, 23.9289 ], [ 75.6789, 23.8795 ], [ 75.5793, 23.9037 ], [ 75.5476, 23.8409 ], [ 75.5813, 23.8129 ], [ 75.637, 23.7198 ], [ 75.7544, 23.699 ], [ 75.804, 23.7238 ], [ 75.7874, 23.7915 ], [ 75.922, 23.8145 ], [ 75.8597, 23.9441 ], [ 76.0286, 24.035 ], [ 76.0496, 24.2126 ], [ 76.0991, 24.2422 ], [ 76.1108, 24.1532 ], [ 76.4448, 24.0883 ], [ 76.52, 24.1796 ], [ 76.5769, 24.1796 ], [ 76.6049, 24.0895 ], [ 76.7144, 24.0317 ], [ 76.7909, 24.0469 ], [ 76.8477, 24.1114 ], [ 76.7474, 24.2092 ], [ 76.7463, 24.4464 ], [ 76.857, 24.3752 ], [ 76.9906, 24.4577 ], [ 76.9245, 24.6929 ], [ 76.7265, 24.6881 ], [ 76.6922, 24.7346 ], [ 76.8167, 24.7839 ], [ 76.772, 24.9355 ], [ 76.8032, 24.9772 ], [ 77.0846, 25.0338 ], [ 77.2331, 25.0118 ], [ 77.3069, 25.0466 ], [ 77.3227, 25.1252 ], [ 77.2391, 25.3573 ], [ 77.1183, 25.2714 ], [ 76.7127, 25.2281 ], [ 76.5681, 25.2724 ], [ 76.4555, 25.4076 ], [ 76.4708, 25.5665 ], [ 76.4027, 25.7205 ], [ 76.5131, 25.8133 ], [ 76.6664, 25.8248 ], [ 76.7832, 26.0129 ], [ 77.3627, 26.319 ], [ 77.4758, 26.3413 ], [ 77.8298, 26.5861 ], [ 78.0229, 26.6266 ], [ 78.3144, 26.7633 ], [ 78.4194, 26.7767 ], [ 78.5188, 26.7046 ], [ 78.617, 26.7176 ], [ 78.8172, 26.6708 ], [ 78.992, 26.5171 ], [ 79.0883, 26.3463 ], [ 79.0845, 26.2161 ], [ 79.0152, 26.1942 ], [ 78.9323, 26.0742 ], [ 78.9282, 25.9958 ], [ 78.9852, 25.9641 ], [ 78.8939, 25.828 ], [ 78.8532, 25.8302 ], [ 78.8445, 25.7112 ], [ 78.7547, 25.7017 ], [ 78.7724, 25.5984 ], [ 78.6234, 25.4929 ], [ 78.4455, 25.5161 ], [ 78.3974, 25.4985 ], [ 78.25, 25.2961 ], [ 78.3885, 25.0736 ], [ 78.2952, 24.9795 ], [ 78.3104, 24.9311 ], [ 78.1355, 24.8574 ], [ 78.1101, 24.7894 ], [ 78.2518, 24.6169 ], [ 78.1483, 24.4877 ], [ 78.206, 24.3929 ] ] ] } },
{ "type": "Feature", "properties": { "rid": 10, "name": "ARUNACHAL PRADESH", "zone": "East & NE" }, "geometry": { "type": "Polygon", "coordinates": [ [ [ 92.2244, 26.9449 ], [ 92.097, 27.1984 ], [ 92.1855, 27.3649 ], [ 92.0637, 27.5181 ], [ 91.6868, 27.5701 ], [ 91.6231, 27.6413 ], [ 91.6887, 27.7772 ], [ 91.667, 27.8955 ], [ 92.0068, 27.761 ], [ 92.2578, 27.9187 ], [ 92.3964, 27.8655 ], [ 92.5734, 27.9066 ], [ 92.781, 28.0328 ], [ 92.7217, 28.1491 ], [ 92.7689, 28.2125 ], [ 93.2831, 28.4182 ], [ 93.2221, 28.5036 ], [ 93.344, 28.6994 ], [ 93.4291, 28.7428 ], [ 94.0264, 28.7947 ], [ 94.0331, 28.9257 ], [ 94.2532, 29.1824 ], [ 94.6469, 29.424 ], [ 94.7667, 29.3741 ], [ 94.8127, 29.2925 ], [ 95.0424, 29.2813 ], [ 95.3579, 29.1548 ], [ 95.4996, 29.1617 ], [ 95.6393, 29.3731 ], [ 96.0999, 29.5859 ], [ 96.3199, 29.3463 ], [ 96.4164, 29.4129 ], [ 96.4316, 29.3497 ], [ 96.3689, 29.2698 ], [ 96.1892, 29.1936 ], [ 96.2222, 29.032 ], [ 96.391, 29.1449 ], [ 96.5492, 29.1731 ], [ 96.5392, 29.1045 ], [ 96.6562, 28.8695 ], [ 96.3883, 28.6536 ], [ 96.4024, 28.5996 ], [ 96.3208, 28.557 ], [ 96.3796, 28.5019 ], [ 96.4433, 28.4633 ], [ 96.6791, 28.588 ], [ 96.9116, 28.4898 ], [ 97.1612, 28.4932 ], [ 97.4549, 28.366 ], [ 97.3851, 28.2359 ], [ 97.4622, 28.1513 ], [ 97.4282, 28.063 ], [ 97.3346, 28.0435 ], [ 96.9779, 27.7633 ], [ 97.0739, 27.523 ], [ 97.2543, 27.283 ], [ 97.2166, 27.2497 ], [ 96.9823, 27.3632 ], [ 96.8267, 27.5467 ], [ 96.6265, 27.4441 ], [ 96.3051, 27.4003 ], [ 96.1454, 27.3247 ], [ 96.0068, 27.16 ], [ 95.5273, 26.7961 ], [ 95.3756, 26.7769 ], [ 95.2833, 26.8596 ], [ 95.2875, 27.09 ], [ 95.3301, 27.1431 ], [ 95.5544, 27.2553 ], [ 95.6148, 27.3474 ], [ 95.6924, 27.3389 ], [ 95.9674, 27.3688 ], [ 96.0986, 27.446 ], [ 96.119, 27.4962 ], [ 96.0788, 27.5252 ], [ 95.9754, 27.5277 ], [ 95.9778, 27.6361 ], [ 95.8931, 27.7133 ], [ 95.8695, 27.8267 ], [ 96.0261, 28.0724 ], [ 95.7781, 28.0864 ], [ 95.6152, 27.9939 ], [ 95.3411, 27.9711 ], [ 94.9863, 27.8452 ], [ 94.6512, 27.6577 ], [ 94.3911, 27.6712 ], [ 94.3507, 27.7216 ], [ 94.2947, 27.7016 ], [ 94.3007, 27.6351 ], [ 94.3684, 27.6042 ], [ 94.097, 27.4173 ], [ 93.9286, 27.2417 ], [ 93.9046, 27.1047 ], [ 93.7677, 27.02 ], [ 93.34, 27.0009 ], [ 93.1352, 26.9644 ], [ 92.834, 27.0917 ], [ 92.7465, 27.0801 ], [ 92.5725, 26.9983 ], [ 92.2975, 26.9265 ], [ 92.2244, 26.9449 ] ] ] } },
{ "type": "Feature", "properties": { "rid": 11, "name": "ASSAM & MEGHALAYA", "zone": "East & NE" }, "geometry": { "type": "Polygon", "coordinates": [ [ [ 95.2875, 27.09 ], [ 95.1034, 26.9949 ], [ 94.9636, 26.9792 ], [ 94.8944, 26.8706 ], [ 94.681, 26.7624 ], [ 94.6049, 26.7601 ], [ 94.4109, 26.5166 ], [ 94.3658, 26.6017 ], [ 94.2523, 26.4234 ], [ 94.1056, 26.2466 ], [ 94.0567, 26.0477 ], [ 94.0882, 25.9836 ], [ 93.9731, 25.9216 ], [ 93.8282, 25.9647 ], [ 93.5066, 25.6643 ], [ 93.4957, 25.5702 ], [ 93.5835, 25.4931 ], [ 93.5956, 25.3554 ], [ 93.5353, 25.3697 ], [ 93.4663, 25.3019 ], [ 93.3669, 25.0093 ], [ 93.2823, 24.8828 ], [ 93.2279, 24.8803 ], [ 93.1733, 24.7742 ], [ 93.268, 24.6832 ], [ 93.2566, 24.5823 ], [ 93.1391, 24.559 ], [ 93.1204, 24.3663 ], [ 92.9811, 24.3531 ], [ 92.8963, 24.4723 ], [ 92.6728, 24.1069 ], [ 92.5674, 24.1461 ], [ 92.4892, 24.2367 ], [ 92.3575, 24.2244 ], [ 92.4096, 24.3111 ], [ 92.3679, 24.5111 ], [ 92.4078, 24.7421 ], [ 92.3413, 24.8506 ], [ 92.3635, 24.926 ], [ 92.5529, 24.8541 ], [ 92.5864, 24.893 ], [ 92.5978, 24.9611 ], [ 92.5304, 25.0468 ], [ 92.281, 25.1505 ], [ 92.1405, 25.2261 ], [ 91.7644, 25.1444 ], [ 91.5029, 25.1957 ], [ 91.2125, 25.2268 ], [ 91.0727, 25.1868 ], [ 90.4403, 25.1616 ], [ 89.925, 25.2943 ], [ 89.8971, 25.3263 ], [ 89.9585, 25.606 ], [ 89.9096, 25.8061 ], [ 89.9459, 25.8437 ], [ 89.9514, 25.9465 ], [ 89.7886, 26.2507 ], [ 89.8853, 26.3253 ], [ 89.9067, 26.4299 ], [ 89.9218, 26.7172 ], [ 90.2453, 26.7683 ], [ 90.3192, 26.8817 ], [ 90.4535, 26.9177 ], [ 90.5445, 26.8494 ], [ 90.7211, 26.7893 ], [ 91.0515, 26.7906 ], [ 91.1728, 26.8469 ], [ 91.4044, 26.8097 ], [ 91.4999, 26.8703 ], [ 91.6066, 26.8253 ], [ 91.7932, 26.8409 ], [ 91.962, 26.9558 ], [ 92.1599, 26.8824 ], [ 92.2244, 26.9449 ], [ 92.2975, 26.9265 ], [ 92.5725, 26.9983 ], [ 92.7465, 27.0801 ], [ 92.834, 27.0917 ], [ 93.1352, 26.9644 ], [ 93.34, 27.0009 ], [ 93.7677, 27.02 ], [ 93.9046, 27.1047 ], [ 93.9286, 27.2417 ], [ 94.097, 27.4173 ], [ 94.3684, 27.6042 ], [ 94.3007, 27.6351 ], [ 94.2947, 27.7016 ], [ 94.3507, 27.7216 ], [ 94.3911, 27.6712 ], [ 94.6512, 27.6577 ], [ 94.9863, 27.8452 ], [ 95.3411, 27.9711 ], [ 95.6152, 27.9939 ], [ 95.7781, 28.0864 ], [ 96.0261, 28.0724 ], [ 95.8695, 27.8267 ], [ 95.8931, 27.7133 ], [ 95.9778, 27.6361 ], [ 95.9754, 27.5277 ], [ 96.0788, 27.5252 ], [ 96.119, 27.4962 ], [ 96.0986, 27.446 ], [ 95.9674, 27.3688 ], [ 95.6924, 27.3389 ], [ 95.6148, 27.3474 ], [ 95.5544, 27.2553 ], [ 95.3301, 27.1431 ], [ 95.2875, 27.09 ] ] ] } },
{ "type": "Feature", "properties": { "rid": 12, "name": "BIHAR", "zone": "East & NE" }, "geometry": { "type": "Polygon", "coordinates": [ [ [ 87.9448, 25.2251 ], [ 87.709, 25.277 ], [ 87.5866, 25.349 ], [ 87.4776, 25.2182 ], [ 87.3522, 25.214 ], [ 87.169, 25.0462 ], [ 87.1604, 24.8964 ], [ 87.0946, 24.825 ], [ 87.0536, 24.608 ], [ 86.958, 24.6494 ], [ 86.9152, 24.5748 ], [ 86.6002, 24.6002 ], [ 86.531, 24.544 ], [ 86.4694, 24.3804 ], [ 86.289, 24.462 ], [ 86.3244, 24.5864 ], [ 86.1562, 24.5912 ], [ 86.0578, 24.779 ], [ 85.7096, 24.7692 ], [ 85.6794, 24.5946 ], [ 85.395, 24.5322 ], [ 85.166, 24.4126 ], [ 84.9066, 24.395 ], [ 84.828, 24.5248 ], [ 84.4918, 24.2912 ], [ 84.282, 24.548 ], [ 84.1176, 24.4792 ], [ 84.029, 24.6322 ], [ 83.9402, 24.5504 ], [ 83.8128, 24.5282 ], [ 83.5559, 24.5207 ], [ 83.3716, 24.7522 ], [ 83.3536, 24.9974 ], [ 83.4107, 25.1633 ], [ 83.5136, 25.2188 ], [ 83.768, 25.3111 ], [ 83.9671, 25.4996 ], [ 84.4354, 25.7021 ], [ 84.5443, 25.5923 ], [ 84.6425, 25.5963 ], [ 84.6114, 25.6958 ], [ 84.0437, 26.0248 ], [ 84.0139, 26.1383 ], [ 84.1753, 26.1735 ], [ 84.1695, 26.2832 ], [ 83.914, 26.3852 ], [ 83.9326, 26.4309 ], [ 84.0366, 26.4633 ], [ 84.1291, 26.5725 ], [ 84.39, 26.5437 ], [ 84.3792, 26.6347 ], [ 84.2978, 26.6432 ], [ 84.2461, 26.7355 ], [ 84.0729, 26.8102 ], [ 83.9881, 27.2021 ], [ 83.9347, 27.2585 ], [ 83.8895, 27.2345 ], [ 83.8225, 27.2384 ], [ 83.8123, 27.2784 ], [ 83.8476, 27.3168 ], [ 83.8952, 27.3228 ], [ 83.8379, 27.3915 ], [ 83.8656, 27.4235 ], [ 84.0386, 27.4056 ], [ 84.1353, 27.4495 ], [ 84.3083, 27.3307 ], [ 84.6486, 27.2641 ], [ 84.7112, 27.1357 ], [ 84.6898, 26.9876 ], [ 85.1655, 26.8237 ], [ 85.2647, 26.7256 ], [ 85.658, 26.8231 ], [ 85.739, 26.7434 ], [ 85.7495, 26.5996 ], [ 85.8719, 26.5312 ], [ 86.0606, 26.6092 ], [ 86.164, 26.6019 ], [ 86.4184, 26.553 ], [ 86.7905, 26.3823 ], [ 87.0737, 26.5485 ], [ 87.0938, 26.4437 ], [ 87.3841, 26.3371 ], [ 87.5156, 26.4147 ], [ 87.6825, 26.3663 ], [ 87.9302, 26.4392 ], [ 88.0612, 26.3389 ], [ 88.1824, 26.5282 ], [ 88.2588, 26.493 ], [ 88.3005, 26.4133 ], [ 88.3269, 26.2994 ], [ 88.0547, 26.1388 ], [ 87.9102, 25.9722 ], [ 87.8889, 25.8494 ], [ 88.1008, 25.6481 ], [ 88.0644, 25.5515 ], [ 88.1551, 25.5022 ], [ 88.1167, 25.4559 ], [ 87.9975, 25.4669 ], [ 87.8835, 25.4121 ], [ 87.9448, 25.2251 ] ] ] } },
{ "type": "Feature", "properties": { "rid": 13, "name": "GANGETIC WEST BENGAL", "zone": "East & NE" }, "geometry": { "type": "Polygon", "coordinates": [ [ [ 88.1541, 24.6574 ], [ 88.1303, 24.5794 ], [ 88.2402, 24.4093 ], [ 88.3873, 24.3273 ], [ 88.8033, 24.2405 ], [ 88.834, 24.1114 ], [ 88.7902, 24.0292 ], [ 88.8388, 23.9504 ], [ 88.7976, 23.8949 ], [ 88.5885, 23.8403 ], [ 88.4734, 23.6266 ], [ 88.6074, 23.4978 ], [ 88.6617, 23.5105 ], [ 88.6515, 23.454 ], [ 88.6983, 23.4381 ], [ 88.6938, 23.2934 ], [ 88.6254, 23.232 ], [ 88.6597, 23.2017 ], [ 88.8697, 23.1767 ], [ 88.7888, 22.9585 ], [ 88.8483, 22.874 ], [ 88.8321, 22.5361 ], [ 89.0045, 22.133 ], [ 88.92, 22.0345 ], [ 88.9415, 21.8782 ], [ 88.7222, 21.9137 ], [ 88.6895, 21.9943 ], [ 88.6136, 21.9768 ], [ 88.5823, 21.9958 ], [ 88.5325, 21.8646 ], [ 88.375, 21.7607 ], [ 88.129, 21.7453 ], [ 88.1092, 21.8954 ], [ 88.1651, 22.0623 ], [ 88.1276, 22.1484 ], [ 88.0705, 22.146 ], [ 88.1145, 22.0641 ], [ 87.8058, 21.6777 ], [ 87.4548, 21.5384 ], [ 87.3852, 21.74 ], [ 87.1882, 21.7958 ], [ 87.1228, 21.9251 ], [ 87.0461, 21.8064 ], [ 86.9855, 21.8005 ], [ 86.9313, 21.9982 ], [ 86.6703, 22.1032 ], [ 86.6614, 22.1625 ], [ 86.7119, 22.1434 ], [ 86.8118, 22.2353 ], [ 86.688, 22.3943 ], [ 86.6874, 22.496 ], [ 86.5957, 22.5154 ], [ 86.5064, 22.647 ], [ 86.4071, 22.6858 ], [ 86.3931, 22.7455 ], [ 86.4049, 22.8517 ], [ 86.4944, 22.9229 ], [ 86.1449, 22.947 ], [ 85.967, 23.0609 ], [ 85.9035, 23.073 ], [ 85.8067, 23.1612 ], [ 85.8136, 23.3424 ], [ 85.8435, 23.3997 ], [ 85.9952, 23.422 ], [ 85.9778, 23.4603 ], [ 86.0835, 23.4899 ], [ 86.1224, 23.3837 ], [ 86.2482, 23.3193 ], [ 86.2947, 23.3318 ], [ 86.3631, 23.5098 ], [ 86.5601, 23.633 ], [ 86.7398, 23.6028 ], [ 86.8162, 23.7307 ], [ 86.7916, 23.7739 ], [ 86.8433, 23.8359 ], [ 86.991, 23.739 ], [ 87.1888, 23.7999 ], [ 87.2379, 23.7754 ], [ 87.3301, 23.8853 ], [ 87.3002, 23.934 ], [ 87.3799, 23.9709 ], [ 87.3922, 23.9342 ], [ 87.5332, 23.9284 ], [ 87.5964, 24.0637 ], [ 87.8013, 24.115 ], [ 87.7765, 24.218 ], [ 87.8843, 24.3037 ], [ 87.8707, 24.4858 ], [ 87.9599, 24.5353 ], [ 87.9369, 24.7361 ], [ 88.1541, 24.6574 ] ] ] } },
{ "type": "Feature", "properties": { "rid": 14, "name": "JHARKHAND", "zone": "East & NE" }, "geometry": { "type": "Polygon", "coordinates": [ [ [ 87.9448, 25.2251 ], [ 87.8475, 25.2017 ], [ 87.8702, 25.0478 ], [ 87.9386, 24.9769 ], [ 87.9369, 24.7361 ], [ 87.9599, 24.5353 ], [ 87.8707, 24.4858 ], [ 87.8843, 24.3037 ], [ 87.7765, 24.218 ], [ 87.8013, 24.115 ], [ 87.5964, 24.0637 ], [ 87.5332, 23.9284 ], [ 87.3922, 23.9342 ], [ 87.3799, 23.9709 ], [ 87.3002, 23.934 ], [ 87.3301, 23.8853 ], [ 87.2379, 23.7754 ], [ 87.1888, 23.7999 ], [ 86.991, 23.739 ], [ 86.8433, 23.8359 ], [ 86.7916, 23.7739 ], [ 86.8162, 23.7307 ], [ 86.7398, 23.6028 ], [ 86.5601, 23.633 ], [ 86.3631, 23.5098 ], [ 86.2947, 23.3318 ], [ 86.2482, 23.3193 ], [ 86.1224, 23.3837 ], [ 86.0835, 23.4899 ], [ 85.9778, 23.4603 ], [ 85.9952, 23.422 ], [ 85.8303, 23.3918 ], [ 85.8136, 23.3424 ], [ 85.8067, 23.1612 ], [ 85.9035, 23.073 ], [ 85.967, 23.0609 ], [ 86.1449, 22.947 ], [ 86.4944, 22.9229 ], [ 86.4049, 22.8517 ], [ 86.3931, 22.7455 ], [ 86.4071, 22.6858 ], [ 86.5064, 22.647 ], [ 86.5957, 22.5154 ], [ 86.6874, 22.496 ], [ 86.688, 22.3943 ], [ 86.8118, 22.2353 ], [ 86.7119, 22.1434 ], [ 86.016, 22.4723 ], [ 85.9583, 22.4581 ], [ 85.9599, 22.1619 ], [ 85.9969, 22.1249 ], [ 85.9206, 21.954 ], [ 85.8013, 21.9162 ], [ 85.7624, 21.9345 ], [ 85.7936, 22.0354 ], [ 85.6687, 22.0115 ], [ 85.341, 22.1014 ], [ 85.2392, 21.9709 ], [ 84.9995, 22.0101 ], [ 85.0795, 22.317 ], [ 85.0671, 22.3791 ], [ 84.518, 22.3583 ], [ 84.4135, 22.2943 ], [ 84.2656, 22.2854 ], [ 83.9861, 22.4676 ], [ 84.1894, 22.5841 ], [ 84.3541, 22.8214 ], [ 84.3432, 22.8807 ], [ 84.1162, 22.9136 ], [ 84.0129, 23.0973 ], [ 84.0546, 23.2543 ], [ 83.9536, 23.2847 ], [ 84.0048, 23.5345 ], [ 83.929, 23.5371 ], [ 83.8857, 23.4639 ], [ 83.7791, 23.4868 ], [ 83.6838, 23.6072 ], [ 83.6089, 23.8205 ], [ 83.4747, 23.898 ], [ 83.2623, 23.907 ], [ 83.3979, 24.0567 ], [ 83.4703, 24.2804 ], [ 83.4353, 24.3689 ], [ 83.4956, 24.4325 ], [ 83.5559, 24.4666 ], [ 83.5559, 24.5207 ], [ 83.8128, 24.5282 ], [ 83.9402, 24.5504 ], [ 84.029, 24.6322 ], [ 84.1176, 24.4792 ], [ 84.282, 24.548 ], [ 84.4918, 24.2912 ], [ 84.828, 24.5248 ], [ 84.9066, 24.395 ], [ 85.166, 24.4126 ], [ 85.395, 24.5322 ], [ 85.6794, 24.5946 ], [ 85.7096, 24.7692 ], [ 86.0578, 24.779 ], [ 86.1562, 24.5912 ], [ 86.3244, 24.5864 ], [ 86.289, 24.462 ], [ 86.4694, 24.3804 ], [ 86.531, 24.544 ], [ 86.6002, 24.6002 ], [ 86.9152, 24.5748 ], [ 86.958, 24.6494 ], [ 87.0536, 24.608 ], [ 87.0946, 24.825 ], [ 87.1604, 24.8964 ], [ 87.169, 25.0462 ], [ 87.3522, 25.214 ], [ 87.4776, 25.2182 ], [ 87.5866, 25.349 ], [ 87.709, 25.277 ], [ 87.9448, 25.2251 ] ] ] } },
{ "type": "Feature", "properties": { "rid": 15, "name": "N M M T", "zone": "East & NE" }, "geometry": { "type": "Polygon", "coordinates": [ [ [ 92.3679, 24.5111 ], [ 92.4096, 24.3111 ], [ 92.3575, 24.2244 ], [ 92.4892, 24.2367 ], [ 92.5674, 24.1461 ], [ 92.6728, 24.1069 ], [ 92.8963, 24.4723 ], [ 92.9811, 24.3531 ], [ 93.1204, 24.3663 ], [ 93.1391, 24.559 ], [ 93.2566, 24.5823 ], [ 93.268, 24.6832 ], [ 93.1733, 24.7742 ], [ 93.2279, 24.8803 ], [ 93.2823, 24.8828 ], [ 93.3669, 25.0093 ], [ 93.4663, 25.3019 ], [ 93.5353, 25.3697 ], [ 93.5956, 25.3554 ], [ 93.5835, 25.4931 ], [ 93.4957, 25.5702 ], [ 93.5066, 25.6643 ], [ 93.8282, 25.9647 ], [ 93.9731, 25.9216 ], [ 94.0882, 25.9836 ], [ 94.0567, 26.0477 ], [ 94.1056, 26.2466 ], [ 94.2523, 26.4234 ], [ 94.3658, 26.6017 ], [ 94.4109, 26.5166 ], [ 94.6049, 26.7601 ], [ 94.681, 26.7624 ], [ 94.8944, 26.8706 ], [ 94.9636, 26.9792 ], [ 95.1034, 26.9949 ], [ 95.2875, 27.09 ], [ 95.2833, 26.8596 ], [ 95.3756, 26.7769 ], [ 95.2509, 26.6834 ], [ 95.2045, 26.5217 ], [ 95.3009, 26.1192 ], [ 95.1415, 25.9383 ], [ 95.1545, 25.791 ], [ 95.1005, 25.7558 ], [ 94.9299, 25.5423 ], [ 94.8186, 25.5279 ], [ 94.7385, 25.3047 ], [ 94.8976, 25.1136 ], [ 94.7519, 24.7662 ], [ 94.7111, 24.7744 ], [ 94.4765, 24.3303 ], [ 94.4047, 24.0447 ], [ 94.284, 23.9404 ], [ 94.1862, 23.9107 ], [ 93.8954, 23.9736 ], [ 93.9138, 24.04 ], [ 93.7861, 24.0274 ], [ 93.5038, 24.0346 ], [ 93.2788, 23.6363 ], [ 93.3143, 23.4428 ], [ 93.1946, 23.1849 ], [ 93.0604, 23.0359 ], [ 92.9983, 22.8454 ], [ 92.926, 22.7481 ], [ 93.0676, 22.3858 ], [ 93.0251, 22.2423 ], [ 92.9476, 22.2093 ], [ 92.8632, 22.0286 ], [ 92.5934, 22.1696 ], [ 92.5605, 22.0319 ], [ 92.5022, 22.0123 ], [ 92.5209, 22.1491 ], [ 92.3938, 22.4294 ], [ 92.4258, 22.7396 ], [ 92.2687, 22.9001 ], [ 92.2764, 23.0967 ], [ 92.2132, 23.2335 ], [ 92.2786, 23.2983 ], [ 92.2008, 23.3956 ], [ 92.1582, 23.5661 ], [ 92.193, 23.6925 ], [ 92.1447, 23.7704 ], [ 91.9406, 23.6821 ], [ 91.8232, 23.7225 ], [ 91.8307, 23.4741 ], [ 91.6976, 23.3411 ], [ 91.712, 23.1139 ], [ 91.5853, 22.9641 ], [ 91.4772, 23.0062 ], [ 91.293, 23.2711 ], [ 91.2987, 23.1211 ], [ 91.2161, 23.1545 ], [ 91.1961, 23.2674 ], [ 91.0818, 23.5548 ], [ 91.1594, 23.7333 ], [ 91.4865, 23.9935 ], [ 91.5263, 24.079 ], [ 91.7668, 24.1183 ], [ 91.8148, 24.2216 ], [ 91.8862, 24.1699 ], [ 91.9312, 24.2247 ], [ 92.0565, 24.1615 ], [ 92.0656, 24.3408 ], [ 92.2468, 24.3962 ], [ 92.2842, 24.5048 ], [ 92.3679, 24.5111 ] ] ] } },
{ "type": "Feature", "properties": { "rid": 16, "name": "SHWB & SIKKIM", "zone": "East & NE" }, "geometry": { "type": "Polygon", "coordinates": [ [ [ 88.1541, 24.6574 ], [ 87.9369, 24.7361 ], [ 87.9386, 24.9769 ], [ 87.8702, 25.0478 ], [ 87.8475, 25.2017 ], [ 87.9448, 25.2251 ], [ 87.8835, 25.4121 ], [ 87.9975, 25.4669 ], [ 88.1167, 25.4559 ], [ 88.1551, 25.5022 ], [ 88.0644, 25.5515 ], [ 88.1008, 25.6481 ], [ 87.8889, 25.8494 ], [ 87.9102, 25.9722 ], [ 88.0547, 26.1388 ], [ 88.3269, 26.2994 ], [ 88.3005, 26.4133 ], [ 88.2588, 26.493 ], [ 88.1824, 26.5282 ], [ 88.2304, 26.7664 ], [ 88.1824, 26.9171 ], [ 88.0382, 27.0463 ], [ 88.0747, 27.4166 ], [ 88.1373, 27.6177 ], [ 88.2194, 27.7584 ], [ 88.1674, 27.9012 ], [ 88.4496, 27.9626 ], [ 88.6238, 28.0811 ], [ 88.7297, 28.081 ], [ 88.8628, 28.0014 ], [ 88.9357, 27.862 ], [ 88.827, 27.4227 ], [ 88.9338, 27.3047 ], [ 88.7968, 27.1662 ], [ 88.9083, 27.1034 ], [ 88.9187, 27.0113 ], [ 89.2266, 26.8109 ], [ 89.4716, 26.8563 ], [ 89.682, 26.8005 ], [ 89.729, 26.724 ], [ 89.9218, 26.7172 ], [ 89.9012, 26.3839 ], [ 89.8853, 26.3253 ], [ 89.6617, 26.1779 ], [ 89.6371, 25.9986 ], [ 89.3868, 26.0247 ], [ 89.2063, 26.1515 ], [ 89.1536, 26.3569 ], [ 89.0165, 26.4507 ], [ 88.9544, 26.3719 ], [ 89.0743, 26.2413 ], [ 88.9531, 26.2765 ], [ 88.7895, 26.245 ], [ 88.8297, 26.1576 ], [ 88.7878, 26.142 ], [ 88.7109, 26.1822 ], [ 88.7617, 26.2985 ], [ 88.4726, 26.5685 ], [ 88.3974, 26.5272 ], [ 88.4106, 26.44 ], [ 88.5956, 26.3681 ], [ 88.5689, 26.3148 ], [ 88.4397, 26.2934 ], [ 88.3909, 26.1731 ], [ 88.2403, 26.1111 ], [ 88.1619, 25.9175 ], [ 88.1843, 25.746 ], [ 88.3263, 25.7441 ], [ 88.5454, 25.5201 ], [ 88.7156, 25.4292 ], [ 88.8801, 25.4864 ], [ 88.8846, 25.3686 ], [ 89.0933, 25.28 ], [ 89.0034, 25.1551 ], [ 88.529, 25.1446 ], [ 88.4059, 24.8543 ], [ 88.3105, 24.8405 ], [ 88.2896, 24.9043 ], [ 88.2266, 24.8944 ], [ 88.1541, 24.6574 ] ] ] } },
{ "type": "Feature", "properties": { "rid": 17, "name": "A & N ISLAND", "zone": "Islands" }, "geometry": { "type": "MultiPolygon", "coordinates": [ [ [ [ 93.9276, 6.9504 ], [ 93.9218, 7.0978 ], [ 94.1166, 7.1927 ], [ 94.222, 7.0001 ], [ 94.1699, 6.768 ], [ 94.0892, 6.7336 ], [ 93.9772, 6.9485 ], [ 93.9276, 6.9504 ] ] ], [ [ [ 93.0105, 9.1738 ], [ 92.9715, 9.1127 ], [ 92.8827, 9.1497 ], [ 92.9564, 9.2554 ], [ 93.0105, 9.1738 ] ] ], [ [ [ 92.6313, 10.8744 ], [ 92.6945, 10.8785 ], [ 92.7616, 10.6906 ], [ 92.6775, 10.499 ], [ 92.5571, 10.5199 ], [ 92.539, 10.7703 ], [ 92.6313, 10.8744 ] ] ], [ [ [ 92.7161, 11.9538 ], [ 92.7273, 11.9094 ], [ 92.7666, 12.2122 ], [ 92.808, 12.2364 ], [ 92.9019, 12.0351 ], [ 92.8572, 11.8784 ], [ 92.888, 11.9423 ], [ 92.9129, 11.8793 ], [ 92.8294, 11.678 ], [ 92.8802, 11.6904 ], [ 92.8891, 11.6276 ], [ 92.8464, 11.4849 ], [ 92.6552, 11.8622 ], [ 92.7161, 11.9538 ] ] ], [ [ [ 92.8607, 12.6898 ], [ 92.8709, 12.8666 ], [ 93.021, 12.9522 ], [ 93.0997, 12.7071 ], [ 93.0903, 12.5322 ], [ 92.9762, 12.4275 ], [ 92.9993, 12.3516 ], [ 92.8832, 12.3279 ], [ 92.8136, 12.4022 ], [ 92.8191, 12.6499 ], [ 92.8607, 12.6898 ] ] ], [ [ [ 92.9406, 13.1482 ], [ 92.9171, 13.399 ], [ 93.0387, 13.5749 ], [ 93.1315, 13.5965 ], [ 93.1754, 13.3545 ], [ 93.1062, 13.3983 ], [ 93.1081, 13.3303 ], [ 93.1615, 13.2234 ], [ 93.1177, 13.073 ], [ 93.0535, 13.0923 ], [ 93.0135, 13.0494 ], [ 93.0413, 12.9992 ], [ 92.9527, 12.9392 ], [ 92.913, 12.94 ], [ 92.8911, 13.0632 ], [ 92.9406, 13.1482 ] ] ] ] } },
{ "type": "Feature", "properties": { "rid": 18, "name": "LAKSHADWEEP", "zone": "Islands" }, "geometry": { "type": "MultiPolygon", "coordinates": [ [ [ [ 72.2886, 10.0454 ], [ 72.285, 10.0456 ], [ 72.2904, 10.0528 ], [ 72.2886, 10.0454 ] ] ], [ [ [ 72.335, 10.0994 ], [ 72.3366, 10.1062 ], [ 72.337, 10.1062 ], [ 72.3382, 10.1046 ], [ 72.335, 10.0994 ] ] ], [ [ [ 72.3272, 10.1296 ], [ 72.3316, 10.1328 ], [ 72.333, 10.1276 ], [ 72.3272, 10.1296 ] ] ], [ [ [ 72.6404, 10.579 ], [ 72.6496, 10.5632 ], [ 72.6172, 10.5418 ], [ 72.6404, 10.579 ] ] ], [ [ [ 72.1686, 10.815 ], [ 72.168, 10.8124 ], [ 72.1646, 10.813 ], [ 72.1686, 10.815 ] ] ], [ [ [ 72.206, 10.8782 ], [ 72.1796, 10.8286 ], [ 72.17, 10.818 ], [ 72.1944, 10.871 ], [ 72.206, 10.8782 ] ] ], [ [ [ 72.2876, 10.947 ], [ 72.2924, 10.9366 ], [ 72.2848, 10.9364 ], [ 72.2876, 10.947 ] ] ], [ [ [ 72.3172, 10.9496 ], [ 72.3204, 10.9458 ], [ 72.3152, 10.9434 ], [ 72.3172, 10.9496 ] ] ], [ [ [ 72.3332, 10.9518 ], [ 72.3302, 10.9514 ], [ 72.3334, 10.9526 ], [ 72.3332, 10.9518 ] ] ], [ [ [ 72.3346, 10.955 ], [ 72.3326, 10.9542 ], [ 72.333, 10.9548 ], [ 72.3346, 10.955 ] ] ], [ [ [ 72.3354, 10.9564 ], [ 72.3342, 10.9578 ], [ 72.334, 10.959 ], [ 72.3354, 10.9564 ] ] ], [ [ [ 72.1902, 11.5988 ], [ 72.1866, 11.5984 ], [ 72.185, 11.6014 ], [ 72.1902, 11.5988 ] ] ], [ [ [ 72.7172, 11.6944 ], [ 72.7054, 11.6826 ], [ 72.7164, 11.7038 ], [ 72.7172, 11.6944 ] ] ], [ [ [ 71.6564, 11.9888 ], [ 71.7506, 11.923 ], [ 71.6906, 11.8493 ], [ 71.6564, 11.9888 ] ] ], [ [ [ 71.8739, 12.2263 ], [ 71.8152, 12.1851 ], [ 71.7825, 12.2459 ], [ 71.8455, 12.4134 ], [ 71.882, 12.3981 ], [ 71.8739, 12.2263 ] ] ], [ [ [ 73.081, 8.3288 ], [ 73.0688, 8.282 ], [ 73.0488, 8.2624 ], [ 73.0208, 8.2666 ], [ 73.0558, 8.2818 ], [ 73.0742, 8.3194 ], [ 73.081, 8.3288 ] ], [ [ 73.0654, 8.292 ], [ 73.071, 8.3094 ], [ 73.0776, 8.323 ], [ 73.0668, 8.3024 ], [ 73.0654, 8.292 ] ] ], [ [ [ 73.0146, 8.3022 ], [ 73.016, 8.2994 ], [ 73.0124, 8.2992 ], [ 73.0146, 8.3022 ] ] ], [ [ [ 73.0136, 8.3018 ], [ 73.0136, 8.3022 ], [ 73.014, 8.302 ], [ 73.0136, 8.3018 ] ] ], [ [ [ 73.6312, 10.068 ], [ 73.6306, 10.0686 ], [ 73.6316, 10.0684 ], [ 73.6312, 10.068 ] ] ], [ [ [ 73.6324, 10.0692 ], [ 73.6332, 10.069 ], [ 73.6324, 10.0686 ], [ 73.6324, 10.0692 ] ] ], [ [ [ 73.6338, 10.0712 ], [ 73.6346, 10.072 ], [ 73.6348, 10.0716 ], [ 73.6338, 10.0712 ] ] ], [ [ [ 73.6282, 10.074 ], [ 73.6266, 10.0718 ], [ 73.626, 10.0726 ], [ 73.6282, 10.074 ] ] ], [ [ [ 73.631, 10.073 ], [ 73.6308, 10.0734 ], [ 73.6312, 10.0736 ], [ 73.631, 10.073 ] ] ], [ [ [ 73.6478, 10.0638 ], [ 73.635, 10.071 ], [ 73.6514, 10.1016 ], [ 73.6472, 10.0762 ], [ 73.6478, 10.0638 ] ] ], [ [ [ 73.652, 10.1084 ], [ 73.6524, 10.1092 ], [ 73.6526, 10.1086 ], [ 73.652, 10.1084 ] ] ], [ [ [ 73.6598, 10.129 ], [ 73.6642, 10.1394 ], [ 73.6616, 10.1304 ], [ 73.6598, 10.129 ] ] ], [ [ [ 73.6636, 10.8054 ], [ 73.6994, 10.8162 ], [ 73.7016, 10.814 ], [ 73.6636, 10.8054 ] ] ], [ [ [ 72.7186, 11.115 ], [ 72.7192, 11.1284 ], [ 72.734, 11.136 ], [ 72.729, 11.1222 ], [ 72.7186, 11.115 ] ] ], [ [ [ 72.7902, 11.2566 ], [ 72.777, 11.2172 ], [ 72.77, 11.2064 ], [ 72.7626, 11.183 ], [ 72.7616, 11.1826 ], [ 72.7794, 11.2424 ], [ 72.7902, 11.2566 ] ] ], [ [ [ 73.0084, 11.4696 ], [ 72.998, 11.497 ], [ 72.9998, 11.4984 ], [ 73.0098, 11.4874 ], [ 73.0084, 11.4696 ] ] ] ] } },
{ "type": "Feature", "properties": { "rid": 19, "name": "EAST RAJASTHAN", "zone": "NW" }, "geometry": { "type": "Polygon", "coordinates": [ [ [ 75.6614, 28.4623 ], [ 76.0022, 28.2184 ], [ 75.951, 28.0851 ], [ 75.9726, 27.9969 ], [ 75.9181, 27.9132 ], [ 75.963, 27.796 ], [ 76.2005, 27.7668 ], [ 76.1207, 27.9365 ], [ 76.1754, 27.9882 ], [ 76.319, 28.0064 ], [ 76.3273, 28.0918 ], [ 76.2838, 28.1227 ], [ 76.4414, 28.1005 ], [ 76.5083, 27.9223 ], [ 76.8049, 28.1749 ], [ 76.9128, 28.1129 ], [ 76.9221, 27.8126 ], [ 76.8566, 27.6069 ], [ 76.9188, 27.6032 ], [ 77.0306, 27.6923 ], [ 77.0149, 27.759 ], [ 77.2617, 27.7436 ], [ 77.3976, 27.374 ], [ 77.5893, 27.1796 ], [ 77.6451, 27.1916 ], [ 77.5667, 27.0582 ], [ 77.4762, 27.0171 ], [ 77.7101, 26.9456 ], [ 77.4367, 26.826 ], [ 77.3996, 26.7046 ], [ 77.4425, 26.6799 ], [ 77.4669, 26.7722 ], [ 77.7977, 26.8416 ], [ 78.0009, 26.7813 ], [ 78.0824, 26.8854 ], [ 78.2, 26.8894 ], [ 78.2341, 26.8232 ], [ 78.0791, 26.7214 ], [ 78.0229, 26.6266 ], [ 77.8298, 26.5861 ], [ 77.4758, 26.3413 ], [ 77.3627, 26.319 ], [ 76.7832, 26.0129 ], [ 76.6664, 25.8248 ], [ 76.5131, 25.8133 ], [ 76.4027, 25.7205 ], [ 76.4708, 25.5665 ], [ 76.4555, 25.4076 ], [ 76.5681, 25.2724 ], [ 76.7127, 25.2281 ], [ 77.1183, 25.2714 ], [ 77.2391, 25.3573 ], [ 77.3227, 25.1252 ], [ 77.3069, 25.0466 ], [ 77.2331, 25.0118 ], [ 77.0846, 25.0338 ], [ 76.8032, 24.9772 ], [ 76.772, 24.9355 ], [ 76.8167, 24.7839 ], [ 76.6922, 24.7346 ], [ 76.7265, 24.6881 ], [ 76.9245, 24.6929 ], [ 76.9906, 24.4577 ], [ 76.857, 24.3752 ], [ 76.7463, 24.4464 ], [ 76.7474, 24.2092 ], [ 76.8477, 24.1114 ], [ 76.7909, 24.0469 ], [ 76.7144, 24.0317 ], [ 76.6049, 24.0895 ], [ 76.5769, 24.1796 ], [ 76.52, 24.1796 ], [ 76.4448, 24.0883 ], [ 76.1108, 24.1532 ], [ 76.0991, 24.2422 ], [ 76.0496, 24.2126 ], [ 76.0286, 24.035 ], [ 75.8597, 23.9441 ], [ 75.922, 23.8145 ], [ 75.7874, 23.7915 ], [ 75.804, 23.7238 ], [ 75.7544, 23.699 ], [ 75.637, 23.7198 ], [ 75.5813, 23.8129 ], [ 75.5476, 23.8409 ], [ 75.5793, 23.9037 ], [ 75.6789, 23.8795 ], [ 75.6503, 23.9289 ], [ 75.7136, 24.0374 ], [ 75.6514, 24.076 ], [ 75.7063, 24.2206 ], [ 75.6386, 24.2943 ], [ 75.6609, 24.3655 ], [ 75.7807, 24.3965 ], [ 75.8081, 24.4991 ], [ 75.7342, 24.5537 ], [ 75.6867, 24.6947 ], [ 75.4873, 24.6111 ], [ 75.0887, 24.6794 ], [ 75.1429, 24.7632 ], [ 75.106, 24.8264 ], [ 75.2611, 24.7565 ], [ 75.3489, 24.8036 ], [ 75.1869, 24.8185 ], [ 75.1686, 24.8999 ], [ 75.2114, 24.8633 ], [ 75.2718, 24.9651 ], [ 75.1167, 25.0027 ], [ 75.0658, 25.0023 ], [ 75.0289, 24.8495 ], [ 74.93, 24.7861 ], [ 74.7262, 24.9188 ], [ 74.744, 24.7276 ], [ 74.8843, 24.6985 ], [ 74.8049, 24.5698 ], [ 74.7069, 24.7063 ], [ 74.642, 24.5047 ], [ 74.6461, 24.4194 ], [ 74.7115, 24.4105 ], [ 74.6365, 24.1944 ], [ 74.8125, 24.1705 ], [ 74.7764, 24.0686 ], [ 75.0277, 23.6857 ], [ 75.007, 23.5491 ], [ 74.8594, 23.456 ], [ 74.7053, 23.4004 ], [ 74.63, 23.2636 ], [ 74.8351, 23.1332 ], [ 74.5948, 23.0457 ], [ 74.3971, 22.9992 ], [ 74.3431, 23.118 ], [ 74.2185, 23.1162 ], [ 74.1816, 23.2323 ], [ 74.0757, 23.308 ], [ 73.7573, 23.402 ], [ 73.6929, 23.5973 ], [ 73.6165, 23.5664 ], [ 73.4893, 23.7646 ], [ 73.2359, 24.074 ], [ 73.1009, 23.9929 ], [ 72.9702, 24.1301 ], [ 72.9482, 24.1914 ], [ 73.0619, 24.3406 ], [ 72.9602, 24.4033 ], [ 72.9613, 24.488 ], [ 72.9075, 24.4905 ], [ 72.7905, 24.3537 ], [ 72.1112, 24.5646 ], [ 72.1737, 24.5926 ], [ 72.3729, 24.7376 ], [ 72.4971, 24.7448 ], [ 72.5019, 24.9017 ], [ 72.8515, 25.2774 ], [ 73.0123, 25.215 ], [ 73.0372, 25.0739 ], [ 73.0858, 25.048 ], [ 72.9997, 24.9294 ], [ 73.2147, 24.7413 ], [ 73.5173, 25.1561 ], [ 73.799, 25.4269 ], [ 73.9924, 25.8786 ], [ 74.1498, 25.8861 ], [ 74.4155, 26.2126 ], [ 74.2494, 26.3476 ], [ 74.5678, 26.605 ], [ 74.6961, 26.5822 ], [ 74.6684, 26.7952 ], [ 74.911, 27.0202 ], [ 75.1571, 26.8878 ], [ 75.3829, 27.1542 ], [ 75.0748, 27.2415 ], [ 75.1979, 27.3324 ], [ 75.0664, 27.3983 ], [ 74.8332, 27.2739 ], [ 74.6517, 27.6513 ], [ 74.9069, 28.2485 ], [ 75.2172, 28.4764 ], [ 75.3547, 28.325 ], [ 75.6614, 28.4623 ] ] ] } },
{ "type": "Feature", "properties": { "rid": 20, "name": "EAST UTTAR PRADESH", "zone": "NW" }, "geometry": { "type": "Polygon", "coordinates": [ [ [ 80.1033, 25.2826 ], [ 80.1463, 25.4367 ], [ 80.3502, 25.6958 ], [ 80.2465, 25.8314 ], [ 80.365, 25.8893 ], [ 80.3013, 25.9321 ], [ 80.2142, 25.9316 ], [ 80.0948, 25.9882 ], [ 80.0943, 26.0599 ], [ 79.9673, 26.0662 ], [ 79.9666, 26.1379 ], [ 79.8638, 26.0941 ], [ 79.7439, 26.1791 ], [ 79.5602, 26.2634 ], [ 79.5192, 26.3633 ], [ 79.7147, 26.6661 ], [ 79.674, 26.7374 ], [ 79.7772, 26.7885 ], [ 79.6322, 26.8947 ], [ 79.5446, 26.8651 ], [ 79.3437, 26.9489 ], [ 79.4379, 27.0718 ], [ 79.3068, 27.278 ], [ 79.2388, 27.5208 ], [ 79.1476, 27.6843 ], [ 79.2437, 27.7143 ], [ 79.5029, 27.6027 ], [ 79.6231, 27.6326 ], [ 79.6571, 27.4824 ], [ 79.7536, 27.4762 ], [ 79.7117, 27.6263 ], [ 79.759, 27.7055 ], [ 79.8399, 27.6704 ], [ 80.0727, 27.7438 ], [ 80.0548, 27.9443 ], [ 80.2394, 28.0816 ], [ 80.2873, 28.1821 ], [ 80.3996, 28.3331 ], [ 80.3097, 28.4617 ], [ 80.4475, 28.4766 ], [ 80.4031, 28.6049 ], [ 80.5393, 28.5949 ], [ 80.5433, 28.6333 ], [ 80.7782, 28.4737 ], [ 81.1897, 28.3101 ], [ 81.3524, 28.1082 ], [ 81.42, 28.1077 ], [ 81.809, 27.8495 ], [ 81.9028, 27.807 ], [ 81.9789, 27.8813 ], [ 82.0642, 27.8717 ], [ 82.4956, 27.6317 ], [ 82.7007, 27.6461 ], [ 82.7695, 27.4693 ], [ 83.2062, 27.3977 ], [ 83.2746, 27.3684 ], [ 83.3022, 27.2876 ], [ 83.3775, 27.2759 ], [ 83.4261, 27.4457 ], [ 83.656, 27.4264 ], [ 83.8476, 27.3168 ], [ 83.8123, 27.2784 ], [ 83.8225, 27.2384 ], [ 83.8895, 27.2345 ], [ 83.9347, 27.2585 ], [ 83.9881, 27.2021 ], [ 84.0729, 26.8102 ], [ 84.2461, 26.7355 ], [ 84.2978, 26.6432 ], [ 84.3792, 26.6347 ], [ 84.39, 26.5437 ], [ 84.1291, 26.5725 ], [ 84.0366, 26.4633 ], [ 83.9326, 26.4309 ], [ 83.914, 26.3852 ], [ 84.1695, 26.2832 ], [ 84.1753, 26.1735 ], [ 84.0139, 26.1383 ], [ 84.0437, 26.0248 ], [ 84.6114, 25.6958 ], [ 84.6425, 25.5963 ], [ 84.5443, 25.5923 ], [ 84.4354, 25.7021 ], [ 83.9671, 25.4996 ], [ 83.768, 25.3111 ], [ 83.5136, 25.2188 ], [ 83.4107, 25.1633 ], [ 83.3536, 24.9974 ], [ 83.3716, 24.7522 ], [ 83.5559, 24.5207 ], [ 83.5559, 24.4666 ], [ 83.4956, 24.4325 ], [ 83.4353, 24.3689 ], [ 83.4703, 24.2804 ], [ 83.3979, 24.0567 ], [ 83.1827, 23.7995 ], [ 82.9899, 23.7479 ], [ 82.775, 23.8425 ], [ 82.7803, 23.9162 ], [ 82.6284, 24.007 ], [ 82.6506, 24.0529 ], [ 82.7163, 24.0416 ], [ 82.7978, 24.1913 ], [ 82.7191, 24.314 ], [ 82.7373, 24.4568 ], [ 82.8146, 24.4461 ], [ 82.791, 24.5151 ], [ 82.6998, 24.5764 ], [ 82.4019, 24.5949 ], [ 82.3762, 24.5016 ], [ 82.321, 24.5278 ], [ 82.2952, 24.5977 ], [ 82.2122, 24.596 ], [ 82.2177, 24.6687 ], [ 82.1628, 24.6759 ], [ 82.0746, 24.7445 ], [ 81.9326, 24.7859 ], [ 81.8513, 24.9177 ], [ 81.6764, 24.9397 ], [ 81.5867, 25.0014 ], [ 81.6127, 25.0406 ], [ 81.552, 25.1443 ], [ 81.4942, 25.119 ], [ 81.4794, 24.9896 ], [ 81.3971, 24.9829 ], [ 81.4019, 25.0472 ], [ 81.2719, 25.084 ], [ 81.1985, 24.8439 ], [ 81.1231, 24.8161 ], [ 81.0441, 24.8565 ], [ 80.8234, 24.8257 ], [ 80.7916, 24.8889 ], [ 80.8979, 25.0867 ], [ 80.8531, 25.0374 ], [ 80.6969, 25.0185 ], [ 80.7604, 24.9766 ], [ 80.7228, 24.9669 ], [ 80.5969, 25.0525 ], [ 80.5654, 24.9877 ], [ 80.5108, 25.0104 ], [ 80.5352, 24.9342 ], [ 80.4552, 24.8835 ], [ 80.428, 24.9749 ], [ 80.3626, 24.9211 ], [ 80.2583, 24.9521 ], [ 80.3512, 25.0274 ], [ 80.3259, 25.0619 ], [ 80.4092, 25.0737 ], [ 80.4189, 25.1427 ], [ 80.2981, 25.1835 ], [ 80.2563, 25.3309 ], [ 80.1033, 25.2826 ] ] ] } },
{ "type": "Feature", "properties": { "rid": 21, "name": "HAR. CHD & DELHI", "zone": "NW" }, "geometry": { "type": "Polygon", "coordinates": [ [ [ 77.6045, 30.3267 ], [ 77.4484, 30.0919 ], [ 77.2461, 30.0031 ], [ 77.154, 29.9167 ], [ 77.1559, 29.762 ], [ 77.13, 29.6353 ], [ 77.0649, 29.5822 ], [ 77.0164, 29.4881 ], [ 77.1327, 29.3208 ], [ 77.1399, 29.2265 ], [ 77.0909, 29.1911 ], [ 77.1066, 29.0313 ], [ 77.1615, 28.8292 ], [ 77.3022, 28.6129 ], [ 77.3175, 28.447 ], [ 77.4949, 28.3219 ], [ 77.4432, 28.0623 ], [ 77.4071, 28.0127 ], [ 77.4679, 27.8867 ], [ 77.4403, 27.8455 ], [ 77.2977, 27.8177 ], [ 77.2617, 27.7436 ], [ 77.0149, 27.759 ], [ 77.0306, 27.6923 ], [ 76.9188, 27.6032 ], [ 76.8566, 27.6069 ], [ 76.9221, 27.8126 ], [ 76.9128, 28.1129 ], [ 76.8049, 28.1749 ], [ 76.5083, 27.9223 ], [ 76.4414, 28.1005 ], [ 76.2838, 28.1227 ], [ 76.3273, 28.0918 ], [ 76.319, 28.0064 ], [ 76.1754, 27.9882 ], [ 76.1207, 27.9365 ], [ 76.2005, 27.7668 ], [ 75.963, 27.796 ], [ 75.9181, 27.9132 ], [ 75.9726, 27.9969 ], [ 75.951, 28.0851 ], [ 76.0022, 28.2184 ], [ 75.6164, 28.4931 ], [ 75.523, 28.6462 ], [ 75.4563, 28.904 ], [ 75.495, 28.98 ], [ 75.3788, 29.0335 ], [ 75.3835, 29.2288 ], [ 75.3154, 29.2358 ], [ 75.3096, 29.29 ], [ 75.2039, 29.2089 ], [ 75.1663, 29.2488 ], [ 74.9139, 29.2739 ], [ 74.8938, 29.3493 ], [ 74.5901, 29.2952 ], [ 74.5224, 29.4196 ], [ 74.5952, 29.4754 ], [ 74.5967, 29.6852 ], [ 74.4763, 29.7502 ], [ 74.5539, 29.9327 ], [ 74.6148, 29.9361 ], [ 74.7211, 29.9808 ], [ 74.9906, 29.8574 ], [ 75.1284, 29.8576 ], [ 75.1153, 29.7755 ], [ 75.1778, 29.8198 ], [ 75.1778, 29.6072 ], [ 75.285, 29.5394 ], [ 75.4131, 29.7664 ], [ 75.5894, 29.7413 ], [ 75.8046, 29.7992 ], [ 75.9589, 29.6927 ], [ 76.0558, 29.7303 ], [ 76.1045, 29.819 ], [ 76.2208, 29.8314 ], [ 76.1487, 29.9672 ], [ 76.2629, 30.015 ], [ 76.2113, 30.0921 ], [ 76.3813, 30.0943 ], [ 76.3983, 30.1297 ], [ 76.5707, 30.0481 ], [ 76.7137, 30.3402 ], [ 76.7651, 30.3839 ], [ 76.9075, 30.3793 ], [ 76.9323, 30.5669 ], [ 76.8444, 30.6728 ], [ 76.6812, 30.6901 ], [ 76.694, 30.7486 ], [ 76.8517, 30.757 ], [ 76.8174, 30.7978 ], [ 76.7843, 30.8778 ], [ 76.9088, 30.8389 ], [ 77.0998, 30.719 ], [ 77.1598, 30.6474 ], [ 77.1626, 30.4516 ], [ 77.6045, 30.3267 ] ] ] } },
{ "type": "Feature", "properties": { "rid": 22, "name": "HIMACHAL PRADESH", "zone": "NW" }, "geometry": { "type": "Polygon", "coordinates": [ [ [ 78.4455, 32.4866 ], [ 78.5411, 32.3985 ], [ 78.4957, 32.1944 ], [ 78.6414, 32.1536 ], [ 78.819, 31.8893 ], [ 78.7612, 31.84 ], [ 78.7388, 31.6804 ], [ 78.8633, 31.5333 ], [ 78.738, 31.4216 ], [ 78.8247, 31.3718 ], [ 78.9377, 31.1912 ], [ 78.9897, 31.0471 ], [ 78.9229, 31.0338 ], [ 78.7701, 31.1232 ], [ 78.4853, 31.1478 ], [ 78.331, 31.2257 ], [ 78.0921, 31.0855 ], [ 77.947, 31.0983 ], [ 77.7746, 30.8581 ], [ 77.8021, 30.7931 ], [ 77.7406, 30.7293 ], [ 77.7806, 30.5992 ], [ 77.7394, 30.5204 ], [ 77.8185, 30.4718 ], [ 77.5886, 30.3575 ], [ 77.6045, 30.3267 ], [ 77.1626, 30.4516 ], [ 77.1598, 30.6474 ], [ 77.0998, 30.719 ], [ 76.9088, 30.8389 ], [ 76.7843, 30.8778 ], [ 76.6187, 30.9742 ], [ 76.6486, 31.1512 ], [ 76.6216, 31.2252 ], [ 76.4439, 31.2787 ], [ 76.4253, 31.3888 ], [ 76.3565, 31.3517 ], [ 76.2975, 31.2803 ], [ 76.2373, 31.245 ], [ 76.1441, 31.402 ], [ 76.0751, 31.6533 ], [ 75.9904, 31.7564 ], [ 76.0029, 31.8405 ], [ 75.8336, 31.9663 ], [ 75.6417, 32.0474 ], [ 75.7399, 32.2433 ], [ 75.9418, 32.3722 ], [ 75.9296, 32.4246 ], [ 75.8621, 32.4648 ], [ 75.9547, 32.5958 ], [ 75.9301, 32.7207 ], [ 75.8316, 32.8535 ], [ 75.8651, 32.8904 ], [ 75.9739, 32.8632 ], [ 76.117, 32.9729 ], [ 76.2659, 32.9834 ], [ 76.4364, 33.1333 ], [ 76.7478, 33.1308 ], [ 76.799, 33.173 ], [ 76.8022, 33.1922 ], [ 76.873, 33.1666 ], [ 76.8763, 33.0464 ], [ 76.9698, 32.9537 ], [ 77.3076, 32.7907 ], [ 77.4828, 32.8162 ], [ 77.7375, 32.9234 ], [ 77.8036, 32.8901 ], [ 77.9571, 32.6 ], [ 78.0815, 32.546 ], [ 78.3814, 32.7032 ], [ 78.3329, 32.5122 ], [ 78.3851, 32.4107 ], [ 78.4455, 32.4866 ] ] ] } },
{ "type": "Feature", "properties": { "rid": 23, "name": "JAMMU & KASHMIR", "zone": "NW" }, "geometry": { "type": "Polygon", "coordinates": [ [ [ 78.5093, 32.5717 ], [ 78.3851, 32.4107 ], [ 78.3329, 32.5122 ], [ 78.3814, 32.7032 ], [ 78.0815, 32.546 ], [ 77.9571, 32.6 ], [ 77.8036, 32.8901 ], [ 77.7375, 32.9234 ], [ 77.4828, 32.8162 ], [ 77.3076, 32.7907 ], [ 76.9698, 32.9537 ], [ 76.8763, 33.0464 ], [ 76.873, 33.1666 ], [ 76.8022, 33.1922 ], [ 76.799, 33.173 ], [ 76.7478, 33.1308 ], [ 76.4364, 33.1333 ], [ 76.2659, 32.9834 ], [ 76.117, 32.9729 ], [ 75.9739, 32.8632 ], [ 75.8651, 32.8904 ], [ 75.8316, 32.8535 ], [ 75.9301, 32.7207 ], [ 75.9547, 32.5958 ], [ 75.8621, 32.4648 ], [ 75.6478, 32.4114 ], [ 75.5966, 32.2877 ], [ 75.3775, 32.3076 ], [ 75.1467, 32.4341 ], [ 75.1659, 32.4628 ], [ 74.7609, 32.4973 ], [ 74.7011, 32.5988 ], [ 74.7634, 32.8199 ], [ 74.5752, 32.7585 ], [ 74.4746, 32.7988 ], [ 74.3987, 32.7926 ], [ 74.1046, 32.9004 ], [ 73.9668, 33.0034 ], [ 73.8714, 32.9885 ], [ 73.6221, 33.1081 ], [ 73.6918, 33.2768 ], [ 73.6235, 33.3684 ], [ 73.6588, 33.6307 ], [ 73.686, 33.6941 ], [ 73.6411, 33.8644 ], [ 73.5546, 33.9782 ], [ 73.6122, 34.1131 ], [ 73.619, 34.2655 ], [ 73.5111, 34.3942 ], [ 73.5706, 34.5479 ], [ 73.7853, 34.5808 ], [ 73.8634, 34.7554 ], [ 74.1548, 34.8914 ], [ 74.2105, 35.0563 ], [ 74.2017, 35.1205 ], [ 73.8394, 35.2187 ], [ 73.8161, 35.3425 ], [ 73.9165, 35.4704 ], [ 73.8032, 35.4997 ], [ 73.6163, 35.4557 ], [ 73.2808, 35.6879 ], [ 73.2724, 35.816 ], [ 72.9817, 35.8431 ], [ 72.8952, 35.8029 ], [ 72.6708, 35.8722 ], [ 72.7023, 36.1955 ], [ 72.9543, 36.2851 ], [ 73.2302, 36.5564 ], [ 73.2274, 36.6309 ], [ 73.2885, 36.6838 ], [ 74.0089, 36.6806 ], [ 74.0841, 36.7075 ], [ 73.8992, 36.7744 ], [ 73.8273, 36.8641 ], [ 73.9843, 36.8731 ], [ 74.225, 36.8086 ], [ 74.5697, 36.9339 ], [ 74.708, 36.9261 ], [ 74.8427, 37.0347 ], [ 75.0061, 36.8936 ], [ 75.0943, 36.879 ], [ 75.4221, 36.9868 ], [ 75.5878, 36.7681 ], [ 75.8922, 36.5235 ], [ 76.2631, 36.3646 ], [ 76.3466, 36.283 ], [ 76.4443, 36.2813 ], [ 76.6144, 36.1285 ], [ 76.7919, 36.0799 ], [ 76.875, 35.9492 ], [ 76.8362, 35.8491 ], [ 76.8849, 35.8013 ], [ 77.021, 35.7236 ], [ 77.5041, 35.6404 ], [ 77.5586, 35.4622 ], [ 77.436, 35.4662 ], [ 77.5826, 35.397 ], [ 77.8006, 35.4731 ], [ 78.0001, 35.4124 ], [ 78.0318, 35.5208 ], [ 78.2038, 35.4765 ], [ 78.3658, 35.6571 ], [ 78.7732, 35.7833 ], [ 79.2275, 35.7403 ], [ 79.2774, 35.8896 ], [ 79.3853, 35.9191 ], [ 79.5316, 35.793 ], [ 79.8177, 35.702 ], [ 80.0405, 35.7225 ], [ 80.1437, 35.5748 ], [ 80.3358, 35.4644 ], [ 80.3211, 35.2972 ], [ 80.0525, 34.615 ], [ 79.8415, 34.5587 ], [ 79.7714, 34.3876 ], [ 79.5633, 34.4101 ], [ 79.6042, 34.1755 ], [ 79.4451, 33.9575 ], [ 79.1703, 34.0271 ], [ 79.1563, 33.9688 ], [ 78.9684, 33.9934 ], [ 78.9447, 33.938 ], [ 78.9941, 33.7905 ], [ 79.0773, 33.7184 ], [ 79.0511, 33.6346 ], [ 79.1226, 33.5964 ], [ 78.9869, 33.5757 ], [ 78.9933, 33.3129 ], [ 79.1437, 33.2336 ], [ 79.4525, 33.1918 ], [ 79.4792, 33.1612 ], [ 79.3874, 32.9338 ], [ 79.6237, 32.6923 ], [ 79.5987, 32.6282 ], [ 79.4673, 32.4909 ], [ 79.3443, 32.5346 ], [ 79.3142, 32.4788 ], [ 79.1837, 32.4526 ], [ 79.1936, 32.388 ], [ 79.1442, 32.3453 ], [ 78.9714, 32.3028 ], [ 78.8102, 32.4156 ], [ 78.7832, 32.6045 ], [ 78.5093, 32.5717 ] ] ] } },
{ "type": "Feature", "properties": { "rid": 24, "name": "PUNJAB", "zone": "NW" }, "geometry": { "type": "Polygon", "coordinates": [ [ [ 75.3775, 32.3076 ], [ 75.5966, 32.2877 ], [ 75.6478, 32.4114 ], [ 75.8621, 32.4648 ], [ 75.9296, 32.4246 ], [ 75.9418, 32.3722 ], [ 75.7399, 32.2433 ], [ 75.6417, 32.0474 ], [ 75.8336, 31.9663 ], [ 76.0029, 31.8405 ], [ 75.9904, 31.7564 ], [ 76.0751, 31.6533 ], [ 76.1441, 31.402 ], [ 76.2373, 31.245 ], [ 76.2975, 31.2803 ], [ 76.3565, 31.3517 ], [ 76.4253, 31.3888 ], [ 76.4439, 31.2787 ], [ 76.6216, 31.2252 ], [ 76.6486, 31.1512 ], [ 76.6187, 30.9742 ], [ 76.7843, 30.8778 ], [ 76.8174, 30.7978 ], [ 76.8517, 30.757 ], [ 76.694, 30.7486 ], [ 76.6812, 30.6901 ], [ 76.8444, 30.6728 ], [ 76.9323, 30.5669 ], [ 76.9075, 30.3793 ], [ 76.7651, 30.3839 ], [ 76.7137, 30.3402 ], [ 76.5707, 30.0481 ], [ 76.3983, 30.1297 ], [ 76.3813, 30.0943 ], [ 76.2113, 30.0921 ], [ 76.2629, 30.015 ], [ 76.1487, 29.9672 ], [ 76.2208, 29.8314 ], [ 76.1045, 29.819 ], [ 76.0558, 29.7303 ], [ 75.9589, 29.6927 ], [ 75.8046, 29.7992 ], [ 75.5894, 29.7413 ], [ 75.4131, 29.7664 ], [ 75.285, 29.5394 ], [ 75.1778, 29.6072 ], [ 75.1778, 29.8198 ], [ 75.1153, 29.7755 ], [ 75.1284, 29.8576 ], [ 74.9906, 29.8574 ], [ 74.7211, 29.9808 ], [ 74.6148, 29.9361 ], [ 74.5539, 29.9327 ], [ 74.4458, 29.953 ], [ 73.9005, 29.9755 ], [ 73.8771, 30.0273 ], [ 73.9696, 30.1839 ], [ 73.9875, 30.265 ], [ 73.9083, 30.3914 ], [ 73.9665, 30.434 ], [ 73.9455, 30.4709 ], [ 74.0943, 30.5452 ], [ 74.4362, 30.9406 ], [ 74.7696, 31.0912 ], [ 74.6009, 31.0831 ], [ 74.5518, 31.1308 ], [ 74.5621, 31.329 ], [ 74.6674, 31.4337 ], [ 74.5459, 31.7227 ], [ 74.6694, 31.8643 ], [ 74.9852, 32.0367 ], [ 75.309, 32.1119 ], [ 75.4203, 32.2628 ], [ 75.3775, 32.3076 ] ] ] } },
{ "type": "Feature", "properties": { "rid": 25, "name": "UTTARAKHAND", "zone": "NW" }, "geometry": { "type": "Polygon", "coordinates": [ [ [ 80.0531, 28.799 ], [ 79.9622, 28.7582 ], [ 79.833, 28.8049 ], [ 79.8661, 28.8768 ], [ 79.6158, 28.8267 ], [ 79.5741, 28.9039 ], [ 79.4525, 28.8667 ], [ 79.356, 28.967 ], [ 79.1652, 29.0123 ], [ 79.1496, 29.1255 ], [ 79.054, 29.148 ], [ 78.9525, 29.1226 ], [ 78.8763, 29.1931 ], [ 78.7106, 29.3037 ], [ 78.7988, 29.3171 ], [ 78.9601, 29.4271 ], [ 78.741, 29.4713 ], [ 78.5607, 29.5935 ], [ 78.5232, 29.73 ], [ 78.3098, 29.7855 ], [ 78.149, 29.6688 ], [ 77.9736, 29.5933 ], [ 77.9568, 29.7003 ], [ 77.8483, 29.6739 ], [ 77.7647, 29.7256 ], [ 77.7235, 29.9393 ], [ 77.948, 30.2131 ], [ 77.6022, 30.3643 ], [ 77.8185, 30.4718 ], [ 77.7394, 30.5204 ], [ 77.7806, 30.5992 ], [ 77.7406, 30.7293 ], [ 77.8021, 30.7931 ], [ 77.7746, 30.8581 ], [ 77.947, 31.0983 ], [ 78.0921, 31.0855 ], [ 78.331, 31.2257 ], [ 78.4853, 31.1478 ], [ 78.7701, 31.1232 ], [ 78.9229, 31.0338 ], [ 78.9897, 31.0471 ], [ 78.9377, 31.1912 ], [ 79.0783, 31.4018 ], [ 79.161, 31.3778 ], [ 79.2959, 31.2477 ], [ 79.4191, 31.0009 ], [ 79.6495, 30.8924 ], [ 79.879, 30.9246 ], [ 80.1156, 30.7153 ], [ 80.1484, 30.7483 ], [ 80.2241, 30.7212 ], [ 80.2044, 30.5404 ], [ 80.5615, 30.3953 ], [ 80.6377, 30.4033 ], [ 81.0873, 30.1311 ], [ 80.8681, 30.137 ], [ 80.7857, 30.0408 ], [ 80.7859, 29.9588 ], [ 80.6075, 29.9601 ], [ 80.527, 29.8972 ], [ 80.3803, 29.5733 ], [ 80.2334, 29.4263 ], [ 80.2256, 29.3546 ], [ 80.3205, 29.255 ], [ 80.3106, 29.1879 ], [ 80.1023, 29.0294 ], [ 80.0531, 28.799 ] ] ] } },
{ "type": "Feature", "properties": { "rid": 26, "name": "WEST RAJASTHAN", "zone": "NW" }, "geometry": { "type": "Polygon", "coordinates": [ [ [ 75.6614, 28.4623 ], [ 75.3547, 28.325 ], [ 75.2172, 28.4764 ], [ 74.9069, 28.2485 ], [ 74.6517, 27.6513 ], [ 74.8332, 27.2739 ], [ 75.0664, 27.3983 ], [ 75.1979, 27.3324 ], [ 75.0748, 27.2415 ], [ 75.3829, 27.1542 ], [ 75.1571, 26.8878 ], [ 74.911, 27.0202 ], [ 74.6684, 26.7952 ], [ 74.6961, 26.5822 ], [ 74.5678, 26.605 ], [ 74.2494, 26.3476 ], [ 74.4155, 26.2126 ], [ 74.1498, 25.8861 ], [ 73.9924, 25.8786 ], [ 73.799, 25.4269 ], [ 73.5173, 25.1561 ], [ 73.2147, 24.7413 ], [ 72.9997, 24.9294 ], [ 73.0858, 25.048 ], [ 73.0372, 25.0739 ], [ 73.0123, 25.215 ], [ 72.8515, 25.2774 ], [ 72.5019, 24.9017 ], [ 72.4971, 24.7448 ], [ 72.3729, 24.7376 ], [ 72.1678, 24.5946 ], [ 71.9152, 24.6835 ], [ 71.7433, 24.6767 ], [ 71.7154, 24.6372 ], [ 71.4023, 24.7044 ], [ 71.1189, 24.6487 ], [ 71.0719, 24.6901 ], [ 71.0139, 24.6885 ], [ 70.7795, 25.0575 ], [ 70.7516, 25.2054 ], [ 70.5771, 25.4343 ], [ 70.5447, 25.7607 ], [ 70.2109, 25.7574 ], [ 70.0326, 25.8918 ], [ 69.9737, 26.0903 ], [ 70.0569, 26.2384 ], [ 70.0553, 26.6347 ], [ 69.7558, 26.6479 ], [ 69.4541, 26.8161 ], [ 69.3776, 26.9351 ], [ 69.5214, 27.2649 ], [ 69.9811, 27.6494 ], [ 70.1796, 27.9749 ], [ 70.4504, 28.1097 ], [ 70.5831, 28.0374 ], [ 70.6842, 27.8102 ], [ 70.8377, 27.7665 ], [ 71.2597, 27.9015 ], [ 71.6544, 27.9102 ], [ 71.8291, 27.9705 ], [ 71.8905, 28.1511 ], [ 72.1768, 28.4377 ], [ 72.365, 28.7786 ], [ 72.6263, 28.9016 ], [ 72.9313, 29.0792 ], [ 73.1016, 29.2689 ], [ 73.3021, 29.61 ], [ 73.4252, 29.9632 ], [ 73.8035, 30.0812 ], [ 73.9696, 30.1839 ], [ 73.8771, 30.0273 ], [ 73.9005, 29.9755 ], [ 74.4458, 29.953 ], [ 74.5539, 29.9327 ], [ 74.4763, 29.7502 ], [ 74.5967, 29.6852 ], [ 74.5952, 29.4754 ], [ 74.5224, 29.4196 ], [ 74.5901, 29.2952 ], [ 74.8938, 29.3493 ], [ 74.9139, 29.2739 ], [ 75.1663, 29.2488 ], [ 75.2039, 29.2089 ], [ 75.3096, 29.29 ], [ 75.3154, 29.2358 ], [ 75.3835, 29.2288 ], [ 75.3788, 29.0335 ], [ 75.495, 28.98 ], [ 75.4563, 28.904 ], [ 75.523, 28.6462 ], [ 75.6164, 28.4931 ], [ 75.6614, 28.4623 ] ] ] } },
{ "type": "Feature", "properties": { "rid": 27, "name": "WEST UTTAR PRADESH", "zone": "NW" }, "geometry": { "type": "Polygon", "coordinates": [ [ [ 80.4031, 28.6049 ], [ 80.4475, 28.4766 ], [ 80.3097, 28.4617 ], [ 80.3996, 28.3331 ], [ 80.2873, 28.1821 ], [ 80.2394, 28.0816 ], [ 80.0548, 27.9443 ], [ 80.0727, 27.7438 ], [ 79.8399, 27.6704 ], [ 79.759, 27.7055 ], [ 79.7117, 27.6263 ], [ 79.7536, 27.4762 ], [ 79.6571, 27.4824 ], [ 79.6231, 27.6326 ], [ 79.5029, 27.6027 ], [ 79.2437, 27.7143 ], [ 79.1476, 27.6843 ], [ 79.2388, 27.5208 ], [ 79.3068, 27.278 ], [ 79.4379, 27.0718 ], [ 79.3437, 26.9489 ], [ 79.5446, 26.8651 ], [ 79.6322, 26.8947 ], [ 79.7772, 26.7885 ], [ 79.674, 26.7374 ], [ 79.7147, 26.6661 ], [ 79.5192, 26.3633 ], [ 79.5602, 26.2634 ], [ 79.7439, 26.1791 ], [ 79.8638, 26.0941 ], [ 79.9666, 26.1379 ], [ 79.9673, 26.0662 ], [ 80.0943, 26.0599 ], [ 80.0948, 25.9882 ], [ 80.2142, 25.9316 ], [ 80.3013, 25.9321 ], [ 80.365, 25.8893 ], [ 80.2465, 25.8314 ], [ 80.3502, 25.6958 ], [ 80.1463, 25.4367 ], [ 80.1033, 25.2826 ], [ 79.934, 25.1693 ], [ 79.8193, 25.1491 ], [ 79.8236, 25.0335 ], [ 79.5604, 25.075 ], [ 79.3535, 24.9894 ], [ 79.4489, 25.1909 ], [ 79.2482, 25.2643 ], [ 79.2367, 25.1887 ], [ 79.2701, 25.0454 ], [ 79.1247, 25.0451 ], [ 78.9957, 25.1137 ], [ 79.0275, 25.1635 ], [ 78.9592, 25.1869 ], [ 78.8512, 25.1142 ], [ 78.8829, 25.2426 ], [ 78.8332, 25.2611 ], [ 78.7636, 25.1794 ], [ 78.738, 25.2089 ], [ 78.861, 25.3308 ], [ 78.9171, 25.3227 ], [ 78.9085, 25.4799 ], [ 78.8619, 25.504 ], [ 78.817, 25.3984 ], [ 78.7132, 25.3294 ], [ 78.5702, 25.3798 ], [ 78.3991, 25.2174 ], [ 78.5345, 25.1349 ], [ 78.5904, 24.8996 ], [ 78.7452, 24.8206 ], [ 78.7008, 24.5479 ], [ 78.86, 24.5209 ], [ 78.8963, 24.4304 ], [ 78.8638, 24.3956 ], [ 78.9618, 24.37 ], [ 78.9792, 24.3518 ], [ 78.8356, 24.1852 ], [ 78.8566, 24.1309 ], [ 78.7414, 24.0779 ], [ 78.4954, 24.2926 ], [ 78.3345, 24.2179 ], [ 78.1483, 24.4877 ], [ 78.2518, 24.6169 ], [ 78.1101, 24.7894 ], [ 78.1355, 24.8574 ], [ 78.3104, 24.9311 ], [ 78.2952, 24.9795 ], [ 78.3885, 25.0736 ], [ 78.25, 25.2961 ], [ 78.3974, 25.4985 ], [ 78.4455, 25.5161 ], [ 78.6234, 25.4929 ], [ 78.7724, 25.5984 ], [ 78.7547, 25.7017 ], [ 78.8445, 25.7112 ], [ 78.8532, 25.8302 ], [ 78.8939, 25.828 ], [ 78.9852, 25.9641 ], [ 78.9282, 25.9958 ], [ 78.9323, 26.0742 ], [ 79.0152, 26.1942 ], [ 79.0845, 26.2161 ], [ 79.0883, 26.3463 ], [ 78.992, 26.5171 ], [ 78.8172, 26.6708 ], [ 78.617, 26.7176 ], [ 78.5188, 26.7046 ], [ 78.4194, 26.7767 ], [ 78.3144, 26.7633 ], [ 78.0229, 26.6266 ], [ 78.0791, 26.7214 ], [ 78.2341, 26.8232 ], [ 78.2, 26.8894 ], [ 78.0824, 26.8854 ], [ 78.0009, 26.7813 ], [ 77.7977, 26.8416 ], [ 77.4669, 26.7722 ], [ 77.4425, 26.6799 ], [ 77.3996, 26.7046 ], [ 77.4367, 26.826 ], [ 77.7101, 26.9456 ], [ 77.4762, 27.0171 ], [ 77.5667, 27.0582 ], [ 77.6451, 27.1916 ], [ 77.5893, 27.1796 ], [ 77.3976, 27.374 ], [ 77.2617, 27.7436 ], [ 77.2977, 27.8177 ], [ 77.4403, 27.8455 ], [ 77.4679, 27.8867 ], [ 77.4071, 28.0127 ], [ 77.4432, 28.0623 ], [ 77.4949, 28.3219 ], [ 77.3175, 28.447 ], [ 77.3022, 28.6129 ], [ 77.1615, 28.8292 ], [ 77.1066, 29.0313 ], [ 77.0909, 29.1911 ], [ 77.1399, 29.2265 ], [ 77.1327, 29.3208 ], [ 77.0164, 29.4881 ], [ 77.0649, 29.5822 ], [ 77.13, 29.6353 ], [ 77.1559, 29.762 ], [ 77.154, 29.9167 ], [ 77.2461, 30.0031 ], [ 77.4484, 30.0919 ], [ 77.6045, 30.3267 ], [ 77.5886, 30.3575 ], [ 77.6022, 30.3643 ], [ 77.948, 30.2131 ], [ 77.7235, 29.9393 ], [ 77.7647, 29.7256 ], [ 77.8483, 29.6739 ], [ 77.9568, 29.7003 ], [ 77.9736, 29.5933 ], [ 78.149, 29.6688 ], [ 78.3098, 29.7855 ], [ 78.5232, 29.73 ], [ 78.5607, 29.5935 ], [ 78.741, 29.4713 ], [ 78.9601, 29.4271 ], [ 78.7988, 29.3171 ], [ 78.7106, 29.3037 ], [ 78.8763, 29.1931 ], [ 78.9525, 29.1226 ], [ 79.054, 29.148 ], [ 79.1496, 29.1255 ], [ 79.1652, 29.0123 ], [ 79.356, 28.967 ], [ 79.4525, 28.8667 ], [ 79.5741, 28.9039 ], [ 79.6158, 28.8267 ], [ 79.8661, 28.8768 ], [ 79.833, 28.8049 ], [ 79.9622, 28.7582 ], [ 80.0531, 28.799 ], [ 80.3069, 28.6905 ], [ 80.2786, 28.6554 ], [ 80.4031, 28.6049 ] ] ] } },
{ "type": "Feature", "properties": { "rid": 28, "name": "COASTAL ANDHRA PRADESH", "zone": "South" }, "geometry": { "type": "Polygon", "coordinates": [ [ [ 80.3092, 13.3858 ], [ 80.0475, 13.488 ], [ 79.9543, 13.6684 ], [ 79.7483, 13.7727 ], [ 79.7183, 13.8873 ], [ 79.6405, 13.8008 ], [ 79.5713, 13.9056 ], [ 79.4342, 13.9048 ], [ 79.4419, 14.2205 ], [ 79.3224, 14.4589 ], [ 79.2035, 14.6015 ], [ 79.1126, 14.8877 ], [ 79.0608, 15.1742 ], [ 78.7452, 15.2286 ], [ 78.8274, 15.8414 ], [ 78.9247, 15.9858 ], [ 78.9153, 16.0833 ], [ 78.9287, 16.195 ], [ 79.0643, 16.2441 ], [ 79.2007, 16.2154 ], [ 79.2347, 16.5564 ], [ 79.4203, 16.5997 ], [ 79.7915, 16.7278 ], [ 79.8785, 16.6924 ], [ 79.9285, 16.6269 ], [ 80.0766, 16.7771 ], [ 79.9954, 16.8843 ], [ 80.1129, 16.9865 ], [ 80.2059, 17.0287 ], [ 80.3055, 16.9872 ], [ 80.3557, 16.8499 ], [ 80.393, 16.8201 ], [ 80.5111, 16.7845 ], [ 80.6042, 16.7788 ], [ 80.573, 16.8564 ], [ 80.5977, 16.9222 ], [ 80.5044, 16.9699 ], [ 80.4983, 16.9101 ], [ 80.4049, 16.9816 ], [ 80.3984, 17.0832 ], [ 80.4669, 17.0355 ], [ 80.5166, 17.0656 ], [ 80.5599, 17.1494 ], [ 80.6595, 17.1137 ], [ 80.672, 17.036 ], [ 80.7093, 17.0719 ], [ 80.8336, 17.0362 ], [ 80.8833, 17.1618 ], [ 80.9392, 17.1618 ], [ 80.9268, 17.2335 ], [ 80.9952, 17.1797 ], [ 81.1819, 17.2335 ], [ 81.1757, 17.3232 ], [ 81.2504, 17.3231 ], [ 81.319, 17.4007 ], [ 81.3812, 17.3647 ], [ 81.5123, 17.484 ], [ 81.5376, 17.6035 ], [ 81.5879, 17.723 ], [ 81.7191, 17.7763 ], [ 81.8066, 17.9062 ], [ 82.0006, 17.9535 ], [ 82.1172, 18.0246 ], [ 82.2402, 17.9923 ], [ 82.2854, 18.0252 ], [ 82.3654, 18.2498 ], [ 82.3353, 18.397 ], [ 82.3907, 18.4548 ], [ 82.5211, 18.4418 ], [ 82.579, 18.2142 ], [ 82.6412, 18.2096 ], [ 82.8058, 18.3343 ], [ 82.8332, 18.4054 ], [ 82.9247, 18.3398 ], [ 83.0551, 18.3367 ], [ 83.0206, 18.5853 ], [ 83.1452, 18.7336 ], [ 83.2544, 18.728 ], [ 83.4067, 18.8292 ], [ 83.3238, 18.9357 ], [ 83.3536, 18.9593 ], [ 83.4432, 18.9464 ], [ 83.6383, 19.1172 ], [ 83.6745, 18.9781 ], [ 83.7716, 18.9037 ], [ 83.8151, 18.9724 ], [ 83.8795, 18.7918 ], [ 84.2815, 18.7402 ], [ 84.3917, 18.8519 ], [ 84.4165, 18.9479 ], [ 84.6411, 19.052 ], [ 84.622, 19.1036 ], [ 84.7318, 19.0795 ], [ 84.7821, 19.0206 ], [ 84.0976, 18.225 ], [ 83.7534, 18.0614 ], [ 83.487, 17.8744 ], [ 83.3733, 17.6712 ], [ 83.2329, 17.5846 ], [ 83.2191, 17.5217 ], [ 82.5781, 17.1968 ], [ 82.2893, 16.8905 ], [ 82.321, 16.8064 ], [ 82.3698, 16.9079 ], [ 82.4165, 16.8645 ], [ 82.3442, 16.6648 ], [ 82.3187, 16.4988 ], [ 81.7185, 16.2766 ], [ 81.5974, 16.3002 ], [ 81.3392, 16.2962 ], [ 81.1978, 15.9554 ], [ 81.0516, 15.807 ], [ 81.0385, 15.7234 ], [ 80.8546, 15.6374 ], [ 80.7892, 15.8023 ], [ 80.5837, 15.8072 ], [ 80.3304, 15.6309 ], [ 80.228, 15.3711 ], [ 80.1291, 15.2962 ], [ 80.0528, 14.9601 ], [ 80.1676, 14.5354 ], [ 80.1833, 14.2948 ], [ 80.1659, 14.202 ], [ 80.0591, 14.1337 ], [ 80.1533, 14.113 ], [ 80.2647, 13.7478 ], [ 80.3092, 13.3858 ] ] ] } },
{ "type": "Feature", "properties": { "rid": 29, "name": "COASTAL KARNATAKA", "zone": "South" }, "geometry": { "type": "Polygon", "coordinates": [ [ [ 75.5509, 12.4884 ], [ 75.2719, 12.4765 ], [ 75.2834, 12.5481 ], [ 75.1095, 12.6306 ], [ 75.1094, 12.6751 ], [ 75.0448, 12.6467 ], [ 74.96, 12.7533 ], [ 74.8699, 12.7243 ], [ 74.7802, 12.903 ], [ 74.6708, 13.3513 ], [ 74.6519, 13.6004 ], [ 74.7045, 13.585 ], [ 74.6949, 13.6266 ], [ 74.6492, 13.6292 ], [ 74.5642, 13.8935 ], [ 74.4829, 14.0112 ], [ 74.3643, 14.5041 ], [ 74.3136, 14.5065 ], [ 74.2503, 14.7511 ], [ 74.1854, 14.8125 ], [ 74.2278, 14.8685 ], [ 74.125, 14.8834 ], [ 74.0946, 14.942 ], [ 74.2193, 14.963 ], [ 74.2644, 15.1891 ], [ 74.1955, 15.2551 ], [ 74.2916, 15.3124 ], [ 74.2847, 15.3513 ], [ 74.2125, 15.4609 ], [ 74.2284, 15.5367 ], [ 74.4283, 15.5077 ], [ 74.4221, 15.3933 ], [ 74.5293, 15.4155 ], [ 74.6394, 15.3426 ], [ 74.7155, 15.4209 ], [ 74.8973, 15.2451 ], [ 74.8418, 15.1293 ], [ 74.9131, 15.036 ], [ 75.0584, 15.097 ], [ 75.094, 14.8694 ], [ 75.0112, 14.6768 ], [ 75.0712, 14.6307 ], [ 75.0269, 14.4581 ], [ 74.9562, 14.542 ], [ 74.8897, 14.4737 ], [ 74.9917, 14.3144 ], [ 74.8946, 14.2929 ], [ 74.9062, 14.2265 ], [ 74.7586, 14.2703 ], [ 74.7617, 14.1562 ], [ 74.6442, 14.1721 ], [ 74.6984, 13.9737 ], [ 74.8373, 13.882 ], [ 74.9554, 13.8374 ], [ 75.0717, 13.4783 ], [ 75.1409, 13.4323 ], [ 75.0754, 13.326 ], [ 75.2239, 13.2151 ], [ 75.2851, 13.0927 ], [ 75.3706, 13.1803 ], [ 75.5694, 12.9844 ], [ 75.6716, 12.7482 ], [ 75.6558, 12.5763 ], [ 75.5509, 12.4884 ] ] ] } },
{ "type": "Feature", "properties": { "rid": 30, "name": "KERALA", "zone": "South" }, "geometry": { "type": "Polygon", "coordinates": [ [ [ 75.4966, 11.6641 ], [ 75.3515, 11.8 ], [ 75.2066, 11.9804 ], [ 74.9551, 12.4556 ], [ 74.8699, 12.7243 ], [ 74.96, 12.7533 ], [ 75.0448, 12.6467 ], [ 75.1094, 12.6751 ], [ 75.1095, 12.6306 ], [ 75.2834, 12.5481 ], [ 75.2719, 12.4765 ], [ 75.3737, 12.4852 ], [ 75.342, 12.3835 ], [ 75.5301, 12.1538 ], [ 75.728, 12.0716 ], [ 75.826, 11.9308 ], [ 75.9154, 11.888 ], [ 76.0708, 11.9315 ], [ 76.0836, 11.8511 ], [ 76.3269, 11.7219 ], [ 76.4029, 11.624 ], [ 76.3179, 11.5384 ], [ 76.2159, 11.5155 ], [ 76.2194, 11.4239 ], [ 76.4835, 11.3042 ], [ 76.5032, 11.248 ], [ 76.4314, 11.1646 ], [ 76.5629, 11.1573 ], [ 76.6936, 11.1907 ], [ 76.6841, 11.0833 ], [ 76.7639, 11.0132 ], [ 76.6532, 10.9598 ], [ 76.6247, 10.8679 ], [ 76.7348, 10.8371 ], [ 76.8517, 10.7177 ], [ 76.7582, 10.5935 ], [ 76.7802, 10.3166 ], [ 76.8074, 10.2468 ], [ 76.908, 10.1928 ], [ 77.1555, 10.3178 ], [ 77.2439, 10.1969 ], [ 77.2156, 10.0794 ], [ 77.1757, 10.0595 ], [ 77.2215, 9.9087 ], [ 77.1613, 9.5316 ], [ 77.2858, 9.5395 ], [ 77.3718, 9.4317 ], [ 77.3161, 9.3463 ], [ 77.3104, 9.2882 ], [ 77.2481, 9.2165 ], [ 77.2292, 9.103 ], [ 77.1172, 8.9441 ], [ 77.2082, 8.7841 ], [ 77.1385, 8.6664 ], [ 77.1488, 8.5883 ], [ 77.2111, 8.4916 ], [ 77.1486, 8.3952 ], [ 77.0775, 8.1847 ], [ 76.8452, 8.4032 ], [ 76.6125, 8.7301 ], [ 76.5066, 8.8095 ], [ 76.4196, 9.0752 ], [ 76.2971, 9.3359 ], [ 76.225, 9.828 ], [ 76.1242, 10.142 ], [ 75.9228, 10.6095 ], [ 75.8667, 10.6575 ], [ 75.938, 10.7863 ], [ 75.8605, 10.7766 ], [ 75.7803, 11.1283 ], [ 75.4966, 11.6641 ] ], [ [ 75.4966, 11.6641 ], [ 75.5363, 11.614 ], [ 75.6171, 11.6582 ], [ 75.5859, 11.7131 ], [ 75.4966, 11.6641 ] ] ] } },
{ "type": "Feature", "properties": { "rid": 31, "name": "N. I. KARNATAKA", "zone": "South" }, "geometry": { "type": "Polygon", "coordinates": [ [ [ 77.1942, 15.9311 ], [ 76.9183, 15.7303 ], [ 76.8465, 15.6287 ], [ 76.8122, 15.4992 ], [ 76.6579, 15.4604 ], [ 76.4907, 15.3426 ], [ 76.3729, 15.333 ], [ 76.2507, 15.1945 ], [ 76.1764, 15.2215 ], [ 75.9064, 15.1154 ], [ 75.7706, 14.9478 ], [ 75.6606, 14.9381 ], [ 75.7356, 14.8755 ], [ 75.6564, 14.8094 ], [ 75.7176, 14.7107 ], [ 75.8287, 14.6703 ], [ 75.7886, 14.5049 ], [ 75.6356, 14.4586 ], [ 75.6388, 14.3228 ], [ 75.5739, 14.2784 ], [ 75.463, 14.3188 ], [ 75.3654, 14.4094 ], [ 75.296, 14.5434 ], [ 75.1984, 14.6268 ], [ 75.0711, 14.6304 ], [ 75.0112, 14.6768 ], [ 75.094, 14.8694 ], [ 75.0584, 15.097 ], [ 74.9131, 15.036 ], [ 74.8418, 15.1293 ], [ 74.8973, 15.2451 ], [ 74.7155, 15.4209 ], [ 74.6394, 15.3426 ], [ 74.5293, 15.4155 ], [ 74.4221, 15.3933 ], [ 74.4283, 15.5077 ], [ 74.2284, 15.5367 ], [ 74.2397, 15.6466 ], [ 74.0827, 15.661 ], [ 74.1493, 15.7799 ], [ 74.199, 15.7245 ], [ 74.3161, 15.7638 ], [ 74.418, 16.0332 ], [ 74.3468, 16.0695 ], [ 74.4602, 16.1086 ], [ 74.4382, 16.241 ], [ 74.3065, 16.2981 ], [ 74.3256, 16.4045 ], [ 74.238, 16.5343 ], [ 74.3669, 16.545 ], [ 74.4347, 16.6397 ], [ 74.5432, 16.6247 ], [ 74.5455, 16.5774 ], [ 74.652, 16.6023 ], [ 74.6778, 16.7074 ], [ 74.8998, 16.7596 ], [ 74.9198, 16.9599 ], [ 75.0627, 16.9706 ], [ 75.1911, 16.8181 ], [ 75.3134, 16.8774 ], [ 75.2685, 16.9378 ], [ 75.356, 16.9573 ], [ 75.6895, 16.9583 ], [ 75.6359, 17.2882 ], [ 75.6025, 17.3535 ], [ 75.6685, 17.4393 ], [ 75.8985, 17.2837 ], [ 76.0213, 17.2952 ], [ 76.0632, 17.3312 ], [ 76.3651, 17.298 ], [ 76.3926, 17.331 ], [ 76.3292, 17.5642 ], [ 76.4012, 17.5551 ], [ 76.5468, 17.719 ], [ 76.7146, 17.6656 ], [ 76.8127, 17.7849 ], [ 76.7622, 17.8456 ], [ 76.8929, 17.8752 ], [ 76.9601, 18.0591 ], [ 76.9284, 18.0977 ], [ 77.1217, 18.1196 ], [ 77.2154, 18.2368 ], [ 77.1836, 18.2894 ], [ 77.2836, 18.3862 ], [ 77.3935, 18.3939 ], [ 77.3813, 18.2841 ], [ 77.5693, 18.273 ], [ 77.625, 18.2512 ], [ 77.5877, 18.1998 ], [ 77.6086, 18.069 ], [ 77.5521, 17.9941 ], [ 77.5799, 17.947 ], [ 77.6446, 17.9783 ], [ 77.6743, 17.9368 ], [ 77.5286, 17.7663 ], [ 77.4571, 17.5742 ], [ 77.5132, 17.5087 ], [ 77.7074, 17.479 ], [ 77.5745, 17.4053 ], [ 77.3872, 17.1915 ], [ 77.4871, 17.0912 ], [ 77.4392, 16.7376 ], [ 77.4709, 16.5892 ], [ 77.4018, 16.4863 ], [ 77.3038, 16.4574 ], [ 77.2992, 16.3653 ], [ 77.5129, 16.3062 ], [ 77.4899, 15.8897 ], [ 77.1942, 15.9311 ] ] ] } },
{ "type": "Feature", "properties": { "rid": 32, "name": "RAYALASEEMA", "zone": "South" }, "geometry": { "type": "Polygon", "coordinates": [ [ [ 78.9153, 16.0833 ], [ 78.9247, 15.9858 ], [ 78.8274, 15.8414 ], [ 78.7452, 15.2286 ], [ 79.0608, 15.1742 ], [ 79.1126, 14.8877 ], [ 79.2035, 14.6015 ], [ 79.3224, 14.4589 ], [ 79.4419, 14.2205 ], [ 79.4342, 13.9048 ], [ 79.5713, 13.9056 ], [ 79.6405, 13.8008 ], [ 79.7183, 13.8873 ], [ 79.7483, 13.7727 ], [ 79.9543, 13.6684 ], [ 80.0475, 13.488 ], [ 80.0512, 13.4256 ], [ 79.96, 13.3098 ], [ 79.8234, 13.2591 ], [ 79.7997, 13.2072 ], [ 79.4413, 13.3047 ], [ 79.4141, 13.1554 ], [ 79.3119, 13.0616 ], [ 79.2979, 13.0041 ], [ 79.2354, 12.9864 ], [ 78.7294, 13.0731 ], [ 78.6143, 13.003 ], [ 78.5561, 12.7765 ], [ 78.406, 12.5913 ], [ 78.219, 12.7088 ], [ 78.2982, 12.8576 ], [ 78.385, 12.9026 ], [ 78.461, 12.8595 ], [ 78.4198, 12.9214 ], [ 78.5808, 13.2264 ], [ 78.3766, 13.2837 ], [ 78.3787, 13.5231 ], [ 78.0903, 13.6103 ], [ 78.1197, 13.7275 ], [ 78.0732, 13.8255 ], [ 77.9098, 13.8122 ], [ 77.9384, 13.9089 ], [ 77.7873, 13.8947 ], [ 77.7939, 13.8019 ], [ 77.6969, 13.7184 ], [ 77.4854, 13.6784 ], [ 77.434, 13.6862 ], [ 77.3964, 13.8073 ], [ 77.2413, 13.8158 ], [ 77.1741, 13.868 ], [ 77.1285, 13.8591 ], [ 77.1416, 13.7376 ], [ 76.9767, 13.7059 ], [ 77.0054, 13.8919 ], [ 76.9058, 14.1282 ], [ 76.9999, 14.1434 ], [ 77.04, 14.0028 ], [ 77.2734, 13.9805 ], [ 77.3519, 13.8728 ], [ 77.4295, 13.9014 ], [ 77.3377, 14.0202 ], [ 77.3577, 14.0947 ], [ 77.5044, 14.1714 ], [ 77.4261, 14.2644 ], [ 77.3763, 14.2796 ], [ 77.3606, 14.1671 ], [ 77.129, 14.3149 ], [ 77.0971, 14.204 ], [ 76.9856, 14.2091 ], [ 76.867, 14.3032 ], [ 76.9603, 14.4428 ], [ 76.776, 14.5118 ], [ 76.756, 14.5738 ], [ 76.7811, 14.7404 ], [ 76.8682, 14.8549 ], [ 76.8374, 14.9343 ], [ 76.7683, 14.9455 ], [ 76.8186, 15.0326 ], [ 77.0999, 14.9711 ], [ 77.1601, 15.114 ], [ 76.972, 15.4796 ], [ 77.024, 15.4654 ], [ 77.0218, 15.6149 ], [ 77.0858, 15.6417 ], [ 77.0486, 15.8281 ], [ 77.1942, 15.9311 ], [ 77.4899, 15.8897 ], [ 77.4908, 15.9071 ], [ 77.9318, 15.8843 ], [ 78.0365, 15.8977 ], [ 78.1239, 15.8272 ], [ 78.2519, 15.9484 ], [ 78.2694, 16.0262 ], [ 78.4293, 16.082 ], [ 78.572, 16.0299 ], [ 78.6331, 16.0903 ], [ 78.7267, 16.0137 ], [ 78.8376, 16.0447 ], [ 78.8364, 16.1522 ], [ 78.9153, 16.0833 ] ] ] } },
{ "type": "Feature", "properties": { "rid": 33, "name": "S. I. KARNATAKA", "zone": "South" }, "geometry": { "type": "Polygon", "coordinates": [ [ [ 75.0711, 14.6304 ], [ 75.1984, 14.6268 ], [ 75.296, 14.5434 ], [ 75.3654, 14.4094 ], [ 75.463, 14.3188 ], [ 75.5739, 14.2784 ], [ 75.6388, 14.3228 ], [ 75.6356, 14.4586 ], [ 75.7886, 14.5049 ], [ 75.8287, 14.6703 ], [ 75.7176, 14.7107 ], [ 75.6564, 14.8094 ], [ 75.7356, 14.8755 ], [ 75.6606, 14.9381 ], [ 75.7706, 14.9478 ], [ 75.9064, 15.1154 ], [ 76.1764, 15.2215 ], [ 76.2507, 15.1945 ], [ 76.3729, 15.333 ], [ 76.4907, 15.3426 ], [ 76.6579, 15.4604 ], [ 76.8122, 15.4992 ], [ 76.8465, 15.6287 ], [ 76.9183, 15.7303 ], [ 77.0499, 15.8211 ], [ 77.0858, 15.6417 ], [ 77.0218, 15.6149 ], [ 77.024, 15.4654 ], [ 76.972, 15.4796 ], [ 77.1601, 15.114 ], [ 77.0999, 14.9711 ], [ 76.8186, 15.0326 ], [ 76.7683, 14.9455 ], [ 76.8374, 14.9343 ], [ 76.8682, 14.8549 ], [ 76.7811, 14.7404 ], [ 76.756, 14.5738 ], [ 76.776, 14.5118 ], [ 76.9603, 14.4428 ], [ 76.867, 14.3032 ], [ 76.9856, 14.2091 ], [ 77.0971, 14.204 ], [ 77.129, 14.3149 ], [ 77.3606, 14.1671 ], [ 77.3763, 14.2796 ], [ 77.4261, 14.2644 ], [ 77.5044, 14.1714 ], [ 77.3577, 14.0947 ], [ 77.3377, 14.0202 ], [ 77.4295, 13.9014 ], [ 77.3519, 13.8728 ], [ 77.2734, 13.9805 ], [ 77.04, 14.0028 ], [ 76.9999, 14.1434 ], [ 76.9058, 14.1282 ], [ 77.0054, 13.8919 ], [ 76.9767, 13.7059 ], [ 77.1416, 13.7376 ], [ 77.1285, 13.8591 ], [ 77.1741, 13.868 ], [ 77.2413, 13.8158 ], [ 77.3964, 13.8073 ], [ 77.434, 13.6862 ], [ 77.4854, 13.6784 ], [ 77.6969, 13.7184 ], [ 77.7939, 13.8019 ], [ 77.7873, 13.8947 ], [ 77.9384, 13.9089 ], [ 77.9098, 13.8122 ], [ 78.0732, 13.8255 ], [ 78.1197, 13.7275 ], [ 78.0903, 13.6103 ], [ 78.3787, 13.5231 ], [ 78.3766, 13.2837 ], [ 78.5808, 13.2264 ], [ 78.4198, 12.9214 ], [ 78.461, 12.8595 ], [ 78.385, 12.9026 ], [ 78.2982, 12.8576 ], [ 78.219, 12.7088 ], [ 78.2225, 12.7505 ], [ 78.0668, 12.819 ], [ 77.9916, 12.7655 ], [ 77.8575, 12.8479 ], [ 77.7865, 12.8519 ], [ 77.7483, 12.6995 ], [ 77.696, 12.6397 ], [ 77.6289, 12.6437 ], [ 77.5495, 12.5614 ], [ 77.6145, 12.41 ], [ 77.5924, 12.3552 ], [ 77.4167, 12.2144 ], [ 77.4498, 12.1258 ], [ 77.7156, 12.1256 ], [ 77.7487, 12.0204 ], [ 77.6243, 11.9433 ], [ 77.6362, 11.8924 ], [ 77.5186, 11.882 ], [ 77.3078, 11.7307 ], [ 77.2378, 11.7586 ], [ 77.0627, 11.6972 ], [ 77.0045, 11.7622 ], [ 76.9178, 11.7685 ], [ 76.8066, 11.5948 ], [ 76.5492, 11.5337 ], [ 76.4919, 11.6439 ], [ 76.4029, 11.624 ], [ 76.3269, 11.7219 ], [ 76.0836, 11.8511 ], [ 76.0708, 11.9315 ], [ 75.9154, 11.888 ], [ 75.826, 11.9308 ], [ 75.728, 12.0716 ], [ 75.5301, 12.1538 ], [ 75.342, 12.3835 ], [ 75.3736, 12.4848 ], [ 75.5509, 12.4884 ], [ 75.6558, 12.5763 ], [ 75.6716, 12.7482 ], [ 75.5694, 12.9844 ], [ 75.3706, 13.1803 ], [ 75.2851, 13.0927 ], [ 75.2239, 13.2151 ], [ 75.0754, 13.326 ], [ 75.1409, 13.4323 ], [ 75.0717, 13.4783 ], [ 74.9554, 13.8374 ], [ 74.8373, 13.882 ], [ 74.6984, 13.9737 ], [ 74.6442, 14.1721 ], [ 74.7617, 14.1562 ], [ 74.7586, 14.2703 ], [ 74.9062, 14.2265 ], [ 74.8946, 14.2929 ], [ 74.9917, 14.3144 ], [ 74.8897, 14.4737 ], [ 74.9562, 14.542 ], [ 75.0269, 14.4581 ], [ 75.0711, 14.6304 ] ] ] } },
{ "type": "Feature", "properties": { "rid": 34, "name": "TAMILNADU & PONDICHERY", "zone": "South" }, "geometry": { "type": "Polygon", "coordinates": [ [ [ 77.1488, 8.5883 ], [ 77.1385, 8.6664 ], [ 77.2082, 8.7841 ], [ 77.1172, 8.9441 ], [ 77.2292, 9.103 ], [ 77.2481, 9.2165 ], [ 77.3104, 9.2882 ], [ 77.3161, 9.3463 ], [ 77.3718, 9.4317 ], [ 77.2858, 9.5395 ], [ 77.1613, 9.5316 ], [ 77.2215, 9.9087 ], [ 77.1757, 10.0595 ], [ 77.2156, 10.0794 ], [ 77.2439, 10.1969 ], [ 77.1555, 10.3178 ], [ 76.908, 10.1928 ], [ 76.8074, 10.2468 ], [ 76.7802, 10.3166 ], [ 76.7582, 10.5935 ], [ 76.8517, 10.7177 ], [ 76.7348, 10.8371 ], [ 76.6247, 10.8679 ], [ 76.6532, 10.9598 ], [ 76.7639, 11.0132 ], [ 76.6841, 11.0833 ], [ 76.6936, 11.1907 ], [ 76.5629, 11.1573 ], [ 76.4314, 11.1646 ], [ 76.5032, 11.248 ], [ 76.4835, 11.3042 ], [ 76.2194, 11.4239 ], [ 76.2159, 11.5155 ], [ 76.3179, 11.5384 ], [ 76.4029, 11.624 ], [ 76.4919, 11.6439 ], [ 76.5492, 11.5337 ], [ 76.8066, 11.5948 ], [ 76.9178, 11.7685 ], [ 77.0045, 11.7622 ], [ 77.0627, 11.6972 ], [ 77.2378, 11.7586 ], [ 77.3078, 11.7307 ], [ 77.5186, 11.882 ], [ 77.6362, 11.8924 ], [ 77.6243, 11.9433 ], [ 77.7487, 12.0204 ], [ 77.7156, 12.1256 ], [ 77.4498, 12.1258 ], [ 77.4167, 12.2144 ], [ 77.5924, 12.3552 ], [ 77.6145, 12.41 ], [ 77.5495, 12.5614 ], [ 77.6289, 12.6437 ], [ 77.696, 12.6397 ], [ 77.7483, 12.6995 ], [ 77.7865, 12.8519 ], [ 77.8575, 12.8479 ], [ 77.9916, 12.7655 ], [ 78.0668, 12.819 ], [ 78.2225, 12.7505 ], [ 78.219, 12.7088 ], [ 78.406, 12.5913 ], [ 78.5561, 12.7765 ], [ 78.6143, 13.003 ], [ 78.7294, 13.0731 ], [ 79.2354, 12.9864 ], [ 79.2979, 13.0041 ], [ 79.3119, 13.0616 ], [ 79.4141, 13.1554 ], [ 79.4413, 13.3047 ], [ 79.7997, 13.2072 ], [ 79.8234, 13.2591 ], [ 79.96, 13.3098 ], [ 80.0512, 13.4256 ], [ 80.0428, 13.4896 ], [ 80.2732, 13.4008 ], [ 80.3639, 13.2817 ], [ 80.3548, 13.1055 ], [ 80.1723, 12.4229 ], [ 80.0373, 12.4381 ], [ 80.142, 12.373 ], [ 79.9784, 12.0779 ], [ 79.8972, 11.9789 ], [ 79.8274, 11.7244 ], [ 79.7934, 11.3515 ], [ 79.7429, 11.2986 ], [ 79.815, 11.2923 ], [ 79.8664, 10.9417 ], [ 79.8542, 10.8474 ], [ 79.8677, 10.1832 ], [ 79.5654, 10.1936 ], [ 79.5477, 10.2333 ], [ 79.3061, 10.1935 ], [ 79.241, 10.0863 ], [ 79.2442, 9.9423 ], [ 78.9606, 9.5598 ], [ 78.9018, 9.3808 ], [ 78.9274, 9.2657 ], [ 79.1682, 9.1668 ], [ 78.8406, 9.1401 ], [ 78.3915, 9.0054 ], [ 78.1373, 8.7966 ], [ 78.1309, 8.6705 ], [ 78.1718, 8.6524 ], [ 78.1068, 8.5691 ], [ 78.099, 8.386 ], [ 78.015, 8.2677 ], [ 77.7554, 8.0918 ], [ 77.5353, 8.0401 ], [ 77.5021, 7.9635 ], [ 77.342, 8.0022 ], [ 77.0775, 8.1847 ], [ 77.1486, 8.3952 ], [ 77.2111, 8.4916 ], [ 77.1488, 8.5883 ] ] ] } },
{ "type": "Feature", "properties": { "rid": 35, "name": "TELANGANA", "zone": "South" }, "geometry": { "type": "Polygon", "coordinates": [ [ [ 81.8066, 17.9062 ], [ 81.7191, 17.7763 ], [ 81.5879, 17.723 ], [ 81.5376, 17.6035 ], [ 81.5123, 17.484 ], [ 81.3812, 17.3647 ], [ 81.319, 17.4007 ], [ 81.2504, 17.3231 ], [ 81.1757, 17.3232 ], [ 81.1819, 17.2335 ], [ 80.9952, 17.1797 ], [ 80.9268, 17.2335 ], [ 80.9392, 17.1618 ], [ 80.8833, 17.1618 ], [ 80.8336, 17.0362 ], [ 80.7093, 17.0719 ], [ 80.672, 17.036 ], [ 80.6595, 17.1137 ], [ 80.5599, 17.1494 ], [ 80.5166, 17.0656 ], [ 80.4669, 17.0355 ], [ 80.3984, 17.0832 ], [ 80.4049, 16.9816 ], [ 80.4983, 16.9101 ], [ 80.5044, 16.9699 ], [ 80.5977, 16.9222 ], [ 80.573, 16.8564 ], [ 80.6042, 16.7788 ], [ 80.5111, 16.7845 ], [ 80.393, 16.8201 ], [ 80.3557, 16.8499 ], [ 80.3055, 16.9872 ], [ 80.2059, 17.0287 ], [ 80.1129, 16.9865 ], [ 79.9954, 16.8843 ], [ 80.0766, 16.7771 ], [ 79.9285, 16.6269 ], [ 79.8785, 16.6924 ], [ 79.7915, 16.7278 ], [ 79.4203, 16.5997 ], [ 79.2347, 16.5564 ], [ 79.2007, 16.2154 ], [ 79.0643, 16.2441 ], [ 78.9287, 16.195 ], [ 78.9175, 16.0813 ], [ 78.8364, 16.1522 ], [ 78.8376, 16.0447 ], [ 78.7267, 16.0137 ], [ 78.6331, 16.0903 ], [ 78.572, 16.0299 ], [ 78.4293, 16.082 ], [ 78.2694, 16.0262 ], [ 78.2519, 15.9484 ], [ 78.1239, 15.8272 ], [ 78.0365, 15.8977 ], [ 77.9318, 15.8843 ], [ 77.4908, 15.9071 ], [ 77.5129, 16.3062 ], [ 77.2992, 16.3653 ], [ 77.3038, 16.4574 ], [ 77.4018, 16.4863 ], [ 77.4709, 16.5892 ], [ 77.4392, 16.7376 ], [ 77.4871, 17.0912 ], [ 77.3872, 17.1915 ], [ 77.5745, 17.4053 ], [ 77.7074, 17.479 ], [ 77.5132, 17.5087 ], [ 77.4571, 17.5742 ], [ 77.5286, 17.7663 ], [ 77.6743, 17.9368 ], [ 77.6446, 17.9783 ], [ 77.5799, 17.947 ], [ 77.5521, 17.9941 ], [ 77.6086, 18.069 ], [ 77.5877, 18.1998 ], [ 77.625, 18.2512 ], [ 77.5693, 18.273 ], [ 77.5338, 18.3916 ], [ 77.5842, 18.4134 ], [ 77.5766, 18.483 ], [ 77.799, 18.5584 ], [ 77.7746, 18.6576 ], [ 77.8611, 18.7846 ], [ 77.8737, 18.8952 ], [ 77.7773, 18.9566 ], [ 77.8757, 19.0791 ], [ 77.8798, 19.2602 ], [ 77.9851, 19.2981 ], [ 78.0871, 19.1661 ], [ 78.2138, 19.2199 ], [ 78.2166, 19.3564 ], [ 78.3122, 19.4145 ], [ 78.3358, 19.5298 ], [ 78.3124, 19.6428 ], [ 78.3734, 19.7499 ], [ 78.3287, 19.8202 ], [ 78.3361, 19.8731 ], [ 78.4855, 19.7023 ], [ 78.7424, 19.7405 ], [ 78.8014, 19.7018 ], [ 78.8096, 19.6322 ], [ 78.9582, 19.5037 ], [ 79.2299, 19.4105 ], [ 79.2844, 19.5572 ], [ 79.5002, 19.4655 ], [ 79.8147, 19.5163 ], [ 79.845, 19.4374 ], [ 80.0046, 19.3405 ], [ 80.0192, 19.2885 ], [ 79.8859, 19.0808 ], [ 79.879, 19.0344 ], [ 79.9834, 18.9377 ], [ 79.9227, 18.7595 ], [ 80.0953, 18.6996 ], [ 80.2524, 18.6889 ], [ 80.335, 18.5772 ], [ 80.4159, 18.5759 ], [ 80.6078, 18.5341 ], [ 80.7422, 18.3328 ], [ 80.7858, 18.1263 ], [ 80.8766, 18.1786 ], [ 80.8743, 18.1201 ], [ 80.9823, 18.1268 ], [ 81.0207, 17.7707 ], [ 81.0633, 17.7499 ], [ 81.1929, 17.8195 ], [ 81.4033, 17.7769 ], [ 81.6331, 17.8387 ], [ 81.8066, 17.9062 ] ] ] } }
]
}
