{
"type": "FeatureCollection",
"name": "india_outline",
"crs": { "type": "name", "properties": { "name": "urn:ogc:def:crs:OGC:1.3:CRS84" } },
"xy_coordinate_resolution": 0.001,
"features": [
{ "type": "Feature", "properties": { }, "geometry": { "type": "MultiPolygon", "coordinates": [ [ [ [ 68.371, 23.913 ], [ 68.415, 23.987 ], [ 68.569, 24.025 ], [ 68.592, 24.343 ], [ 68.638, 24.384 ], [ 68.711, 24.306 ], [ 68.758, 24.339 ], [ 68.835, 24.291 ], [ 69.446, 24.325 ], [ 69.589, 24.239 ], [ 69.782, 24.203 ], [ 69.899, 24.258 ], [ 69.984, 24.376 ], [ 70.415, 24.462 ], [ 70.47, 24.258 ], [ 70.652, 24.248 ], [ 70.952, 24.444 ], [ 70.855, 24.537 ], [ 70.982, 24.737 ], [ 70.78, 25.058 ], [ 70.751, 25.207 ], [ 70.577, 25.434 ], [ 70.544, 25.756 ], [ 70.211, 25.757 ], [ 70.033, 25.892 ], [ 69.974, 26.09 ], [ 70.057, 26.24 ], [ 70.054, 26.631 ], [ 69.756, 26.648 ], [ 69.454, 26.816 ], [ 69.378, 26.935 ], [ 69.521, 27.265 ], [ 69.981, 27.649 ], [ 70.18, 27.975 ], [ 70.45, 28.11 ], [ 70.583, 28.037 ], [ 70.685, 27.811 ], [ 70.837, 27.767 ], [ 71.26, 27.901 ], [ 71.654, 27.91 ], [ 71.828, 27.971 ], [ 71.891, 28.151 ], [ 72.176, 28.437 ], [ 72.365, 28.779 ], [ 72.931, 29.079 ], [ 73.102, 29.269 ], [ 73.302, 29.61 ], [ 73.425, 29.963 ], [ 73.803, 30.081 ], [ 73.968, 30.183 ], [ 73.986, 30.266 ], [ 73.908, 30.391 ], [ 73.962, 30.432 ], [ 73.946, 30.471 ], [ 74.095, 30.546 ], [ 74.436, 30.941 ], [ 74.726, 31.073 ], [ 74.552, 31.131 ], [ 74.562, 31.329 ], [ 74.666, 31.436 ], [ 74.546, 31.723 ], [ 74.669, 31.864 ], [ 74.985, 32.037 ], [ 75.308, 32.112 ], [ 75.416, 32.258 ], [ 75.152, 32.464 ], [ 74.761, 32.497 ], [ 74.701, 32.599 ], [ 74.753, 32.813 ], [ 74.575, 32.759 ], [ 74.399, 32.793 ], [ 74.105, 32.9 ], [ 73.968, 33.002 ], [ 73.871, 32.989 ], [ 73.622, 33.108 ], [ 73.69, 33.274 ], [ 73.624, 33.368 ], [ 73.685, 33.696 ], [ 73.641, 33.864 ], [ 73.555, 33.978 ], [ 73.619, 34.264 ], [ 73.511, 34.394 ], [ 73.571, 34.548 ], [ 73.784, 34.581 ], [ 73.863, 34.755 ], [ 74.154, 34.892 ], [ 74.202, 35.116 ], [ 73.839, 35.219 ], [ 73.816, 35.342 ], [ 73.907, 35.471 ], [ 73.803, 35.499 ], [ 73.616, 35.456 ], [ 73.281, 35.688 ], [ 73.268, 35.816 ], [ 72.983, 35.843 ], [ 72.895, 35.803 ], [ 72.671, 35.872 ], [ 72.702, 36.195 ], [ 72.955, 36.286 ], [ 73.228, 36.554 ], [ 73.227, 36.631 ], [ 73.289, 36.684 ], [ 74.01, 36.681 ], [ 74.063, 36.713 ], [ 73.899, 36.774 ], [ 73.827, 36.864 ], [ 73.984, 36.873 ], [ 74.226, 36.809 ], [ 74.57, 36.934 ], [ 74.708, 36.927 ], [ 74.843, 37.035 ], [ 75.005, 36.894 ], [ 75.093, 36.879 ], [ 75.422, 36.987 ], [ 75.588, 36.768 ], [ 75.892, 36.524 ], [ 76.263, 36.365 ], [ 76.347, 36.284 ], [ 76.444, 36.281 ], [ 76.615, 36.129 ], [ 76.792, 36.08 ], [ 76.875, 35.949 ], [ 76.838, 35.85 ], [ 76.885, 35.801 ], [ 77.022, 35.723 ], [ 77.504, 35.64 ], [ 77.559, 35.462 ], [ 77.475, 35.451 ], [ 77.581, 35.398 ], [ 77.801, 35.473 ], [ 77.996, 35.415 ], [ 78.032, 35.521 ], [ 78.204, 35.478 ], [ 78.366, 35.657 ], [ 78.773, 35.783 ], [ 79.223, 35.741 ], [ 79.277, 35.89 ], [ 79.385, 35.919 ], [ 79.532, 35.793 ], [ 79.816, 35.703 ], [ 80.04, 35.722 ], [ 80.144, 35.575 ], [ 80.336, 35.464 ], [ 80.321, 35.297 ], [ 80.052, 34.615 ], [ 79.843, 34.558 ], [ 79.771, 34.388 ], [ 79.568, 34.405 ], [ 79.604, 34.176 ], [ 79.445, 33.958 ], [ 79.177, 34.025 ], [ 79.156, 33.969 ], [ 78.973, 33.992 ], [ 78.946, 33.941 ], [ 78.994, 33.791 ], [ 79.077, 33.718 ], [ 79.054, 33.635 ], [ 79.123, 33.596 ], [ 78.988, 33.572 ], [ 78.994, 33.314 ], [ 79.145, 33.234 ], [ 79.453, 33.192 ], [ 79.479, 33.161 ], [ 79.39, 32.933 ], [ 79.624, 32.692 ], [ 79.599, 32.628 ], [ 79.467, 32.491 ], [ 79.345, 32.532 ], [ 79.314, 32.479 ], [ 79.188, 32.452 ], [ 79.144, 32.345 ], [ 78.971, 32.303 ], [ 78.81, 32.416 ], [ 78.78, 32.602 ], [ 78.511, 32.571 ], [ 78.448, 32.489 ], [ 78.541, 32.398 ], [ 78.498, 32.199 ], [ 78.641, 32.154 ], [ 78.819, 31.889 ], [ 78.761, 31.838 ], [ 78.739, 31.682 ], [ 78.863, 31.533 ], [ 78.745, 31.422 ], [ 78.931, 31.202 ], [ 79.078, 31.402 ], [ 79.161, 31.378 ], [ 79.296, 31.248 ], [ 79.421, 31.0 ], [ 79.65, 30.893 ], [ 79.879, 30.925 ], [ 80.11, 30.72 ], [ 80.224, 30.721 ], [ 80.21, 30.538 ], [ 80.56, 30.396 ], [ 80.638, 30.403 ], [ 81.087, 30.131 ], [ 80.869, 30.136 ], [ 80.787, 30.041 ], [ 80.786, 29.959 ], [ 80.608, 29.96 ], [ 80.527, 29.897 ], [ 80.38, 29.573 ], [ 80.234, 29.426 ], [ 80.227, 29.354 ], [ 80.32, 29.255 ], [ 80.311, 29.188 ], [ 80.103, 29.029 ], [ 80.057, 28.798 ], [ 80.307, 28.69 ], [ 80.291, 28.65 ], [ 80.53, 28.596 ], [ 80.543, 28.633 ], [ 80.778, 28.474 ], [ 81.19, 28.31 ], [ 81.352, 28.11 ], [ 81.42, 28.108 ], [ 81.897, 27.81 ], [ 81.979, 27.881 ], [ 82.064, 27.872 ], [ 82.495, 27.632 ], [ 82.701, 27.646 ], [ 82.773, 27.469 ], [ 83.206, 27.398 ], [ 83.37, 27.277 ], [ 83.426, 27.446 ], [ 83.656, 27.426 ], [ 83.85, 27.317 ], [ 83.886, 27.329 ], [ 83.838, 27.391 ], [ 83.866, 27.423 ], [ 84.038, 27.406 ], [ 84.135, 27.449 ], [ 84.308, 27.331 ], [ 84.649, 27.264 ], [ 84.711, 27.136 ], [ 84.694, 26.987 ], [ 85.165, 26.824 ], [ 85.264, 26.727 ], [ 85.658, 26.823 ], [ 85.739, 26.743 ], [ 85.751, 26.6 ], [ 85.87, 26.533 ], [ 86.061, 26.609 ], [ 86.164, 26.602 ], [ 86.418, 26.553 ], [ 86.79, 26.384 ], [ 87.074, 26.548 ], [ 87.097, 26.443 ], [ 87.381, 26.338 ], [ 87.516, 26.415 ], [ 87.683, 26.367 ], [ 87.93, 26.439 ], [ 88.059, 26.343 ], [ 88.182, 26.528 ], [ 88.23, 26.765 ], [ 88.182, 26.917 ], [ 88.038, 27.046 ], [ 88.075, 27.417 ], [ 88.218, 27.758 ], [ 88.167, 27.901 ], [ 88.45, 27.963 ], [ 88.624, 28.081 ], [ 88.73, 28.081 ], [ 88.863, 28.001 ], [ 88.936, 27.862 ], [ 88.828, 27.424 ], [ 88.934, 27.305 ], [ 88.804, 27.166 ], [ 88.908, 27.103 ], [ 88.922, 27.009 ], [ 89.226, 26.812 ], [ 89.472, 26.856 ], [ 89.682, 26.8 ], [ 89.731, 26.724 ], [ 89.922, 26.717 ], [ 90.243, 26.768 ], [ 90.319, 26.882 ], [ 90.453, 26.918 ], [ 90.723, 26.789 ], [ 91.05, 26.791 ], [ 91.173, 26.847 ], [ 91.404, 26.81 ], [ 91.5, 26.87 ], [ 91.607, 26.826 ], [ 91.791, 26.841 ], [ 91.962, 26.956 ], [ 92.16, 26.884 ], [ 92.222, 26.949 ], [ 92.097, 27.198 ], [ 92.182, 27.368 ], [ 92.062, 27.518 ], [ 91.687, 27.57 ], [ 91.623, 27.641 ], [ 91.688, 27.777 ], [ 91.667, 27.895 ], [ 92.006, 27.762 ], [ 92.258, 27.919 ], [ 92.396, 27.866 ], [ 92.574, 27.907 ], [ 92.777, 28.032 ], [ 92.722, 28.149 ], [ 92.769, 28.212 ], [ 93.275, 28.416 ], [ 93.222, 28.504 ], [ 93.344, 28.699 ], [ 93.429, 28.743 ], [ 94.021, 28.795 ], [ 94.033, 28.926 ], [ 94.253, 29.182 ], [ 94.647, 29.424 ], [ 94.767, 29.374 ], [ 94.816, 29.293 ], [ 95.042, 29.281 ], [ 95.358, 29.155 ], [ 95.495, 29.162 ], [ 95.639, 29.373 ], [ 96.1, 29.586 ], [ 96.315, 29.351 ], [ 96.416, 29.413 ], [ 96.432, 29.35 ], [ 96.369, 29.27 ], [ 96.192, 29.193 ], [ 96.221, 29.042 ], [ 96.391, 29.145 ], [ 96.549, 29.173 ], [ 96.54, 29.103 ], [ 96.656, 28.87 ], [ 96.391, 28.656 ], [ 96.402, 28.6 ], [ 96.328, 28.556 ], [ 96.379, 28.503 ], [ 96.447, 28.465 ], [ 96.679, 28.588 ], [ 96.912, 28.49 ], [ 97.161, 28.493 ], [ 97.455, 28.366 ], [ 97.387, 28.239 ], [ 97.462, 28.151 ], [ 97.428, 28.063 ], [ 97.334, 28.043 ], [ 96.98, 27.762 ], [ 97.074, 27.523 ], [ 97.254, 27.283 ], [ 97.217, 27.25 ], [ 96.982, 27.363 ], [ 96.826, 27.544 ], [ 96.626, 27.444 ], [ 96.306, 27.4 ], [ 96.146, 27.325 ], [ 96.007, 27.16 ], [ 95.528, 26.796 ], [ 95.375, 26.776 ], [ 95.252, 26.683 ], [ 95.205, 26.52 ], [ 95.301, 26.119 ], [ 95.143, 25.939 ], [ 95.154, 25.791 ], [ 94.93, 25.542 ], [ 94.817, 25.523 ], [ 94.74, 25.305 ], [ 94.898, 25.114 ], [ 94.752, 24.766 ], [ 94.708, 24.769 ], [ 94.477, 24.331 ], [ 94.405, 24.045 ], [ 94.186, 23.911 ], [ 93.895, 23.974 ], [ 93.902, 24.038 ], [ 93.501, 24.03 ], [ 93.28, 23.638 ], [ 93.314, 23.443 ], [ 92.928, 22.75 ], [ 93.068, 22.386 ], [ 93.025, 22.242 ], [ 92.947, 22.208 ], [ 92.863, 22.029 ], [ 92.599, 22.165 ], [ 92.56, 22.032 ], [ 92.502, 22.012 ], [ 92.52, 22.15 ], [ 92.394, 22.429 ], [ 92.425, 22.738 ], [ 92.269, 22.9 ], [ 92.276, 23.096 ], [ 92.213, 23.233 ], [ 92.275, 23.301 ], [ 92.201, 23.396 ], [ 92.158, 23.566 ], [ 92.192, 23.692 ], [ 92.147, 23.765 ], [ 91.941, 23.682 ], [ 91.826, 23.714 ], [ 91.831, 23.474 ], [ 91.699, 23.341 ], [ 91.712, 23.114 ], [ 91.585, 22.964 ], [ 91.477, 23.006 ], [ 91.309, 23.246 ], [ 91.299, 23.121 ], [ 91.216, 23.155 ], [ 91.082, 23.555 ], [ 91.159, 23.733 ], [ 91.485, 23.993 ], [ 91.526, 24.079 ], [ 91.764, 24.118 ], [ 91.815, 24.222 ], [ 91.882, 24.174 ], [ 91.931, 24.225 ], [ 92.055, 24.171 ], [ 92.066, 24.341 ], [ 92.244, 24.395 ], [ 92.284, 24.505 ], [ 92.369, 24.517 ], [ 92.407, 24.74 ], [ 92.341, 24.851 ], [ 92.364, 24.926 ], [ 92.548, 24.856 ], [ 92.586, 24.892 ], [ 92.597, 24.962 ], [ 92.531, 25.046 ], [ 92.14, 25.226 ], [ 91.764, 25.144 ], [ 91.213, 25.227 ], [ 90.44, 25.162 ], [ 89.925, 25.294 ], [ 89.897, 25.326 ], [ 89.958, 25.606 ], [ 89.91, 25.806 ], [ 89.951, 25.946 ], [ 89.787, 26.252 ], [ 89.662, 26.177 ], [ 89.637, 25.999 ], [ 89.387, 26.025 ], [ 89.206, 26.152 ], [ 89.153, 26.356 ], [ 89.018, 26.447 ], [ 88.958, 26.37 ], [ 89.074, 26.241 ], [ 88.953, 26.276 ], [ 88.801, 26.247 ], [ 88.83, 26.158 ], [ 88.788, 26.142 ], [ 88.711, 26.182 ], [ 88.757, 26.303 ], [ 88.476, 26.565 ], [ 88.401, 26.529 ], [ 88.414, 26.439 ], [ 88.596, 26.368 ], [ 88.569, 26.315 ], [ 88.44, 26.292 ], [ 88.391, 26.173 ], [ 88.24, 26.109 ], [ 88.162, 25.918 ], [ 88.184, 25.751 ], [ 88.326, 25.744 ], [ 88.545, 25.521 ], [ 88.713, 25.431 ], [ 88.88, 25.486 ], [ 88.887, 25.368 ], [ 89.093, 25.28 ], [ 89.003, 25.155 ], [ 88.53, 25.143 ], [ 88.406, 24.854 ], [ 88.311, 24.841 ], [ 88.288, 24.902 ], [ 88.226, 24.891 ], [ 88.131, 24.581 ], [ 88.24, 24.41 ], [ 88.386, 24.328 ], [ 88.803, 24.24 ], [ 88.834, 24.111 ], [ 88.792, 24.029 ], [ 88.839, 23.95 ], [ 88.798, 23.895 ], [ 88.588, 23.839 ], [ 88.476, 23.627 ], [ 88.605, 23.5 ], [ 88.662, 23.51 ], [ 88.654, 23.457 ], [ 88.698, 23.438 ], [ 88.694, 23.293 ], [ 88.633, 23.225 ], [ 88.87, 23.177 ], [ 88.79, 22.96 ], [ 88.848, 22.874 ], [ 88.832, 22.536 ], [ 89.004, 22.133 ], [ 88.921, 22.034 ], [ 88.941, 21.878 ], [ 88.722, 21.914 ], [ 88.688, 21.992 ], [ 88.586, 21.991 ], [ 88.532, 21.865 ], [ 88.375, 21.761 ], [ 88.129, 21.745 ], [ 88.109, 21.895 ], [ 88.164, 22.063 ], [ 88.128, 22.145 ], [ 88.085, 22.146 ], [ 88.114, 22.064 ], [ 87.806, 21.678 ], [ 87.035, 21.422 ], [ 86.792, 21.138 ], [ 86.951, 20.752 ], [ 86.907, 20.731 ], [ 87.013, 20.663 ], [ 86.777, 20.478 ], [ 86.722, 20.39 ], [ 86.776, 20.438 ], [ 86.79, 20.342 ], [ 86.395, 19.937 ], [ 86.248, 19.849 ], [ 85.59, 19.661 ], [ 85.552, 19.597 ], [ 85.156, 19.409 ], [ 84.819, 19.087 ], [ 84.746, 19.079 ], [ 84.782, 19.021 ], [ 84.098, 18.225 ], [ 83.489, 17.876 ], [ 83.373, 17.671 ], [ 83.235, 17.586 ], [ 83.219, 17.522 ], [ 82.579, 17.197 ], [ 82.294, 16.895 ], [ 82.32, 16.822 ], [ 82.37, 16.908 ], [ 82.416, 16.864 ], [ 82.319, 16.499 ], [ 81.718, 16.277 ], [ 81.342, 16.296 ], [ 81.198, 15.955 ], [ 81.053, 15.808 ], [ 81.038, 15.723 ], [ 80.855, 15.637 ], [ 80.788, 15.801 ], [ 80.586, 15.807 ], [ 80.331, 15.631 ], [ 80.228, 15.371 ], [ 80.129, 15.295 ], [ 80.053, 14.961 ], [ 80.168, 14.535 ], [ 80.183, 14.295 ], [ 80.166, 14.202 ], [ 80.075, 14.137 ], [ 80.153, 14.113 ], [ 80.265, 13.748 ], [ 80.294, 13.375 ], [ 80.364, 13.282 ], [ 80.355, 13.106 ], [ 80.172, 12.423 ], [ 80.072, 12.429 ], [ 80.142, 12.373 ], [ 79.897, 11.978 ], [ 79.755, 11.309 ], [ 79.815, 11.292 ], [ 79.866, 10.942 ], [ 79.868, 10.183 ], [ 79.565, 10.194 ], [ 79.542, 10.232 ], [ 79.306, 10.192 ], [ 79.241, 10.086 ], [ 79.244, 9.942 ], [ 78.961, 9.56 ], [ 78.902, 9.381 ], [ 78.93, 9.265 ], [ 79.168, 9.167 ], [ 78.841, 9.14 ], [ 78.391, 9.005 ], [ 78.138, 8.796 ], [ 78.132, 8.674 ], [ 78.172, 8.652 ], [ 78.107, 8.568 ], [ 78.099, 8.386 ], [ 78.015, 8.268 ], [ 77.755, 8.092 ], [ 77.537, 8.04 ], [ 77.502, 7.964 ], [ 77.342, 8.002 ], [ 77.078, 8.185 ], [ 76.507, 8.81 ], [ 76.297, 9.336 ], [ 76.225, 9.828 ], [ 76.124, 10.142 ], [ 75.867, 10.658 ], [ 75.929, 10.778 ], [ 75.861, 10.777 ], [ 75.78, 11.129 ], [ 75.497, 11.663 ], [ 75.207, 11.98 ], [ 74.955, 12.456 ], [ 74.78, 12.903 ], [ 74.671, 13.351 ], [ 74.652, 13.6 ], [ 74.696, 13.62 ], [ 74.649, 13.629 ], [ 74.483, 14.011 ], [ 74.366, 14.498 ], [ 74.314, 14.507 ], [ 74.25, 14.75 ], [ 74.185, 14.813 ], [ 74.219, 14.864 ], [ 74.125, 14.883 ], [ 73.948, 15.059 ], [ 73.901, 15.3 ], [ 73.818, 15.362 ], [ 73.854, 15.398 ], [ 73.705, 15.72 ], [ 73.601, 15.925 ], [ 73.526, 15.939 ], [ 73.341, 16.531 ], [ 73.37, 16.568 ], [ 73.312, 17.068 ], [ 73.193, 17.541 ], [ 73.245, 17.576 ], [ 73.189, 17.603 ], [ 73.093, 17.926 ], [ 73.116, 18.003 ], [ 73.042, 18.027 ], [ 72.991, 18.219 ], [ 73.033, 18.279 ], [ 72.969, 18.363 ], [ 72.987, 18.542 ], [ 72.926, 18.726 ], [ 72.956, 18.792 ], [ 73.022, 18.787 ], [ 72.946, 18.88 ], [ 73.034, 19.057 ], [ 72.895, 18.984 ], [ 72.838, 19.301 ], [ 72.913, 19.358 ], [ 72.82, 19.389 ], [ 72.809, 19.495 ], [ 72.869, 19.521 ], [ 72.866, 19.573 ], [ 72.773, 19.566 ], [ 72.722, 19.823 ], [ 72.736, 19.95 ], [ 72.803, 19.964 ], [ 72.869, 20.322 ], [ 72.965, 20.455 ], [ 72.98, 20.615 ], [ 72.808, 21.075 ], [ 72.755, 21.065 ], [ 72.707, 21.269 ], [ 72.819, 21.536 ], [ 72.934, 21.582 ], [ 72.942, 21.626 ], [ 72.655, 21.634 ], [ 72.705, 21.859 ], [ 72.618, 21.906 ], [ 72.608, 22.1 ], [ 72.663, 22.163 ], [ 72.542, 22.152 ], [ 72.484, 22.238 ], [ 72.376, 21.973 ], [ 72.427, 21.603 ], [ 72.241, 21.198 ], [ 71.551, 20.861 ], [ 71.497, 20.878 ], [ 71.478, 20.832 ], [ 70.945, 20.705 ], [ 70.348, 21.03 ], [ 69.355, 22.005 ], [ 69.137, 22.304 ], [ 69.182, 22.511 ], [ 69.232, 22.431 ], [ 69.357, 22.419 ], [ 69.392, 22.298 ], [ 70.334, 22.55 ], [ 70.645, 23.032 ], [ 70.592, 23.037 ], [ 70.463, 22.925 ], [ 70.423, 23.028 ], [ 70.402, 22.951 ], [ 70.034, 22.869 ], [ 69.899, 22.773 ], [ 69.362, 22.892 ], [ 68.856, 23.18 ], [ 68.781, 23.259 ], [ 68.887, 23.279 ], [ 68.856, 23.364 ], [ 68.796, 23.366 ], [ 68.715, 23.469 ], [ 68.616, 23.453 ], [ 68.646, 23.56 ], [ 68.607, 23.606 ], [ 68.713, 23.925 ], [ 68.663, 23.928 ], [ 68.655, 23.801 ], [ 68.514, 23.61 ], [ 68.359, 23.634 ], [ 68.371, 23.913 ] ], [ [ 75.583, 11.71 ], [ 75.502, 11.662 ], [ 75.538, 11.617 ], [ 75.608, 11.653 ], [ 75.583, 11.71 ] ] ], [ [ [ 94.117, 7.193 ], [ 94.222, 7.0 ], [ 94.17, 6.768 ], [ 94.089, 6.734 ], [ 93.979, 6.945 ], [ 93.928, 6.95 ], [ 93.922, 7.098 ], [ 94.117, 7.193 ] ] ], [ [ [ 92.94, 13.149 ], [ 92.917, 13.399 ], [ 93.039, 13.575 ], [ 93.131, 13.596 ], [ 93.175, 13.355 ], [ 93.107, 13.383 ], [ 93.161, 13.223 ], [ 93.118, 13.073 ], [ 93.05, 13.088 ], [ 93.016, 13.049 ], [ 93.041, 12.999 ], [ 92.953, 12.939 ], [ 92.913, 12.94 ], [ 92.891, 13.063 ], [ 92.94, 13.149 ] ] ], [ [ [ 92.871, 12.867 ], [ 93.021, 12.952 ], [ 93.1, 12.707 ], [ 93.09, 12.532 ], [ 92.978, 12.428 ], [ 92.999, 12.352 ], [ 92.883, 12.328 ], [ 92.814, 12.402 ], [ 92.871, 12.867 ] ] ], [ [ [ 92.956, 9.255 ], [ 93.01, 9.174 ], [ 92.971, 9.113 ], [ 92.883, 9.15 ], [ 92.956, 9.255 ] ] ], [ [ [ 92.733, 11.956 ], [ 92.767, 12.212 ], [ 92.808, 12.236 ], [ 92.902, 12.035 ], [ 92.913, 11.879 ], [ 92.836, 11.694 ], [ 92.88, 11.69 ], [ 92.889, 11.628 ], [ 92.846, 11.485 ], [ 92.655, 11.862 ], [ 92.733, 11.956 ] ] ], [ [ [ 92.631, 10.874 ], [ 92.694, 10.878 ], [ 92.762, 10.691 ], [ 92.677, 10.499 ], [ 92.557, 10.52 ], [ 92.539, 10.77 ], [ 92.631, 10.874 ] ] ], [ [ [ 73.699, 10.816 ], [ 73.701, 10.814 ], [ 73.664, 10.805 ], [ 73.699, 10.816 ] ] ], [ [ [ 73.66, 10.129 ], [ 73.664, 10.139 ], [ 73.662, 10.13 ], [ 73.66, 10.129 ] ] ], [ [ [ 73.638, 10.077 ], [ 73.651, 10.102 ], [ 73.648, 10.064 ], [ 73.638, 10.077 ] ] ], [ [ [ 73.056, 8.283 ], [ 73.081, 8.329 ], [ 73.069, 8.282 ], [ 73.021, 8.267 ], [ 73.056, 8.283 ] ] ], [ [ [ 73.014, 8.302 ], [ 73.015, 8.302 ], [ 73.016, 8.299 ], [ 73.014, 8.302 ] ] ], [ [ [ 73.01, 11.487 ], [ 73.008, 11.47 ], [ 72.998, 11.497 ], [ 73.01, 11.487 ] ] ], [ [ [ 72.779, 11.242 ], [ 72.79, 11.257 ], [ 72.777, 11.217 ], [ 72.762, 11.183 ], [ 72.779, 11.242 ] ] ], [ [ [ 72.719, 11.128 ], [ 72.734, 11.136 ], [ 72.729, 11.122 ], [ 72.719, 11.128 ] ] ], [ [ [ 72.64, 10.579 ], [ 72.65, 10.563 ], [ 72.617, 10.542 ], [ 72.64, 10.579 ] ] ], [ [ [ 72.317, 10.95 ], [ 72.322, 10.948 ], [ 72.32, 10.946 ], [ 72.317, 10.95 ] ] ], [ [ [ 72.332, 10.133 ], [ 72.333, 10.128 ], [ 72.327, 10.13 ], [ 72.332, 10.133 ] ] ], [ [ [ 72.285, 10.937 ], [ 72.288, 10.947 ], [ 72.292, 10.937 ], [ 72.285, 10.937 ] ] ], [ [ [ 72.285, 10.046 ], [ 72.29, 10.053 ], [ 72.289, 10.045 ], [ 72.285, 10.046 ] ] ], [ [ [ 72.194, 10.871 ], [ 72.206, 10.878 ], [ 72.18, 10.829 ], [ 72.194, 10.871 ] ] ], [ [ [ 71.846, 12.413 ], [ 71.882, 12.398 ], [ 71.874, 12.226 ], [ 71.815, 12.185 ], [ 71.783, 12.246 ], [ 71.846, 12.413 ] ] ], [ [ [ 71.751, 11.923 ], [ 71.691, 11.85 ], [ 71.656, 11.989 ], [ 71.751, 11.923 ] ] ] ] } }
]
}
